{"type":"Feature","properties":{"MUN":"INTERLAKEN BORO","COUNTY":"MONMOUTH","MUN_LABEL":"Interlaken Borough","MUN_TYPE":"Borough","NAME":"Interlaken Borough","GNIS_NAME":"Borough of Interlaken"},"geometry":{"type":"Polygon","coordinates":[[[-74.0152911,40.239123],[-74.0153272,40.2390373],[-74.0154981,40.2386467],[-74.0155355,40.2385516],[-74.0155187,40.2385321],[-74.0154873,40.2384544],[-74.0154538,40.2382868],[-74.0154283,40.2381253],[-74.0154002,40.2379597],[-74.0153767,40.2378922],[-74.0153318,40.2378287],[-74.0152208,40.2377016],[-74.0151453,40.2376359],[-74.0150446,40.2375497],[-74.0149307,40.2374512],[-74.0147663,40.2373382],[-74.0146203,40.2372497],[-74.0144397,40.2371571],[-74.0142392,40.2370684],[-74.0140479,40.2369818],[-74.0139018,40.2369097],[-74.0137425,40.2368273],[-74.0136126,40.2367246],[-74.0134723,40.2365872],[-74.0133916,40.2365031],[-74.0132857,40.2364128],[-74.0131398,40.2363223],[-74.012999,40.2362441],[-74.0128583,40.236172],[-74.0127307,40.2361245],[-74.0125896,40.2360994],[-74.0123659,40.2360801],[-74.0121368,40.2360689],[-74.0119356,40.2360578],[-74.0117306,40.2360345],[-74.0114696,40.2360068],[-74.0112671,40.2359896],[-74.0110221,40.2359763],[-74.0107249,40.2359751],[-74.010529,40.2359722],[-74.0103452,40.2359612],[-74.0102547,40.2359465],[-74.0100818,40.2358968],[-74.0098877,40.2358245],[-74.0097284,40.2357421],[-74.0093807,40.2355466],[-74.0090962,40.2353774],[-74.0091161,40.2353472],[-74.0091526,40.235229],[-74.0091303,40.2350377],[-74.0090725,40.2348099],[-74.0089911,40.2345728],[-74.0088862,40.2342993],[-74.0088404,40.2340533],[-74.0088672,40.2336347],[-74.0088944,40.2334189],[-74.0088968,40.2333832],[-74.0088971,40.2333475],[-74.0088952,40.2333119],[-74.0088911,40.2332763],[-74.0088849,40.2332409],[-74.0088766,40.2332058],[-74.0088662,40.233171],[-74.0088537,40.2331366],[-74.0088392,40.2331027],[-74.0088226,40.2330694],[-74.008804,40.2330366],[-74.0087834,40.2330045],[-74.0087609,40.2329732],[-74.0087366,40.2329428],[-74.0087105,40.2329132],[-74.0086826,40.2328845],[-74.008653,40.2328569],[-74.008592,40.2328374],[-74.0085432,40.232807],[-74.0084103,40.2327144],[-74.0083953,40.232704],[-74.0083254,40.2326658],[-74.0082841,40.2326433],[-74.0081026,40.2325823],[-74.0080097,40.2325667],[-74.0078716,40.2325434],[-74.0078611,40.2325417],[-74.007839,40.2325363],[-74.0077176,40.2325065],[-74.0075846,40.232474],[-74.0073413,40.2323765],[-74.0071829,40.2322918],[-74.0070465,40.232203],[-74.0069975,40.2321614],[-74.00693,40.2321426],[-74.0066459,40.2320139],[-74.0063149,40.231794],[-74.005972,40.2315741],[-74.0055934,40.2313813],[-74.0053802,40.2312893],[-74.0052398,40.2312579],[-74.0061674,40.2308689],[-74.0069897,40.2304913],[-74.0075124,40.2302538],[-74.0077783,40.2301615],[-74.008159,40.2300477],[-74.0084249,40.2299719],[-74.0087481,40.2298799],[-74.0090139,40.2297986],[-74.0092152,40.2297225],[-74.0094451,40.2296521],[-74.0095527,40.2296361],[-74.0096459,40.2296365],[-74.0097604,40.2296589],[-74.009889,40.2297309],[-74.0100601,40.2298525],[-74.0101595,40.2299903],[-74.010337,40.2302328],[-74.0104649,40.2303927],[-74.0106216,40.2305362],[-74.0107929,40.2306248],[-74.0110005,40.2306697],[-74.0113158,40.230693],[-74.01171,40.2307056],[-74.0121043,40.2306963],[-74.0125203,40.2306706],[-74.0128433,40.230606],[-74.0132955,40.2305255],[-74.0137333,40.2304559],[-74.0138533,40.2304313],[-74.0142315,40.230329],[-74.0146143,40.2305585],[-74.01485,40.2306914],[-74.0150786,40.2308022],[-74.015479,40.2309467],[-74.0158724,40.2310693],[-74.0164521,40.231198],[-74.0170966,40.2312996],[-74.0174477,40.2313286],[-74.0178416,40.2313742],[-74.0180994,40.2314192],[-74.0182853,40.2314859],[-74.0185283,40.2315858],[-74.0188283,40.2317464],[-74.0191282,40.2319125],[-74.0194426,40.2320622],[-74.0197854,40.2322449],[-74.0201282,40.2324331],[-74.0204068,40.2325661],[-74.0207215,40.2326718],[-74.0210434,40.2327721],[-74.0215086,40.2328839],[-74.0218379,40.2329402],[-74.0224539,40.2330307],[-74.0225736,40.2333278],[-74.0226222,40.2335588],[-74.0227207,40.2338174],[-74.02287,40.2339939],[-74.0230125,40.2341318],[-74.0232333,40.2343306],[-74.0234758,40.2345019],[-74.0236617,40.234585],[-74.0237983,40.234618],[-74.0238694,40.2346358],[-74.0239202,40.234638],[-74.0239787,40.2346343],[-74.0240575,40.2346249],[-74.0241262,40.2346154],[-74.0241974,40.2346138],[-74.0242532,40.2346257],[-74.0243596,40.2346709],[-74.0244376,40.2347492],[-74.0243328,40.234854],[-74.0242638,40.2349268],[-74.0242245,40.2350027],[-74.0242025,40.2350687],[-74.024189,40.2351381],[-74.024146,40.2353694],[-74.0241292,40.2354597],[-74.024068,40.2357889],[-74.0239458,40.2364513],[-74.0238941,40.2367313],[-74.0238796,40.2368098],[-74.0237662,40.2374479],[-74.0237539,40.2375168],[-74.0237091,40.2377481],[-74.023656,40.2379364],[-74.0235117,40.2384364],[-74.0234968,40.2384879],[-74.0233466,40.2389932],[-74.0232676,40.2392724],[-74.0232316,40.2393994],[-74.0231582,40.2396426],[-74.02313,40.2397362],[-74.0229531,40.2403439],[-74.0228646,40.2406609],[-74.0228077,40.2407896],[-74.0227637,40.240881],[-74.0226158,40.2408461],[-74.0195485,40.2401233],[-74.0168725,40.2394925],[-74.0163542,40.2393714],[-74.0154007,40.2391486],[-74.0152911,40.239123]]]}}
