{"type":"FeatureCollection","name":"interlaken_road_centerlines","metadata":{"source":"NJOGIS NG911 Road Centerlines (Tran_road)","url":"https://services2.arcgis.com/XVOqAjTOJ5P6ngMu/arcgis/rest/services/Tran_road/FeatureServer/0","query_url":"https://services2.arcgis.com/XVOqAjTOJ5P6ngMu/arcgis/rest/services/Tran_road/FeatureServer/0/query","retrieved_at_utc":"2026-09-04T20:05:17.155945+00:00","source_last_edit_date":1785341586960,"out_sr":4326,"query_envelope_wgs84":[-74.0244376,40.2296361,-74.0052398,40.240881],"spatial_relationship":"esriSpatialRelIntersects","boundary_file":"interlaken_boundary.geojson","boundary_sha256":"697910afbf028a5083cbb3338d570f280438f9941273be537262461e724768de","fields":["OBJECTID","PRIMENAME","ELEVTYP_F","ELEVTYP_T"],"feature_count":252,"complete_objectid_inventory_verified":true,"municipal_clipping":"Envelope selection only; clip against the actual municipal boundary in the application."},"features":[{"type":"Feature","id":240,"properties":{"OBJECTID":240,"PRIMENAME":"Queen Anne Drive","ELEVTYP_F":0,"ELEVTYP_T":0},"geometry":{"type":"LineString","coordinates":[[-74.0064365786563,40.2404193923533],[-74.0065985349594,40.2406904892815],[-74.0068811853881,40.2411635182393],[-74.006985341199,40.2413784197797],[-74.007108437285,40.2415552982714],[-74.0071760619823,40.2416652037175],[-74.0072065689779,40.2417463179816],[-74.0072121804297,40.2418321574125],[-74.0071865228243,40.241936944324],[-74.0071420661569,40.2420653693321],[-74.0070913403887,40.2421986267175],[-74.0070407530018,40.242312777922],[-74.0070313357527,40.2423368405527]]}},{"type":"Feature","id":1876,"properties":{"OBJECTID":1876,"PRIMENAME":"Beechwood Avenue","ELEVTYP_F":0,"ELEVTYP_T":0},"geometry":{"type":"LineString","coordinates":[[-74.0119974119716,40.2372130072529],[-74.0110942136164,40.2369994587317],[-74.0096041820289,40.236654803705],[-74.0095089862863,40.2366327131299]]}},{"type":"Feature","id":3335,"properties":{"OBJECTID":3335,"PRIMENAME":"Neptune Avenue","ELEVTYP_F":0,"ELEVTYP_T":0},"geometry":{"type":"LineString","coordinates":[[-74.0057206181261,40.2399718000077],[-74.0051435985277,40.2398768753613]]}},{"type":"Feature","id":3731,"properties":{"OBJECTID":3731,"PRIMENAME":"Edgemere Place","ELEVTYP_F":0,"ELEVTYP_T":0},"geometry":{"type":"LineString","coordinates":[[-74.0093553226384,40.2361253452365],[-74.0093559601121,40.2361213669873],[-74.0093568441136,40.2361180769928],[-74.0093586210461,40.2361149817252],[-74.0093611851163,40.2361122473595],[-74.0093644603199,40.236109983455],[-74.0093682695741,40.2361083009437],[-74.0093724678061,40.2361072721647],[-74.0093768408672,40.2361069331375],[-74.0093872743853,40.2361056326688],[-74.00939749663,40.236103644094],[-74.0094074746832,40.236100969075],[-74.0094127626505,40.2360977797084],[-74.0094175179089,40.2360941485576],[-74.009421701476,40.2360901033783],[-74.0094252434251,40.2360857258347],[-74.009428071869,40.2360810435431],[-74.0094301850412,40.2360761384566],[-74.0094315106581,40.2360710931305],[-74.0094316223612,40.2360655481924],[-74.0094310172071,40.2360600002158],[-74.0094297322104,40.2360545313184],[-74.0094276929321,40.2360491970259],[-74.0094250070986,40.2360440518352],[-74.0094216756836,40.2360391236709],[-74.0094176994659,40.236034467477],[-74.0094124990844,40.2360300807977],[-74.0094067962839,40.2360261035936],[-74.0094006216189,40.2360225359942],[-74.0093940571565,40.2360194053675],[-74.0093871622261,40.2360167957268],[-74.0093799419508,40.2360146485505],[-74.009369072958,40.2360119698236],[-74.009357983593,40.2360098638869],[-74.0093467102667,40.2360083335966],[-74.0093353618669,40.2360074352557],[-74.0093289465522,40.236007901624],[-74.0093226345947,40.236009027719],[-74.0093166036409,40.2360107872738],[-74.009310929116,40.2360131508862],[-74.0093057124623,40.2360160667476],[-74.0093010304754,40.2360194784414],[-74.0092972625688,40.2360253645425],[-74.0092942814225,40.236031500762],[-74.0092920509964,40.2360378329073],[-74.0092906786283,40.2360443064928],[-74.0092900944124,40.2360508374599],[-74.009290369048,40.2360573999891],[-74.0092925766378,40.236064162556],[-74.0092955741817,40.2360707330272],[-74.0092993972341,40.2360770701226],[-74.0093039394005,40.236083097735],[-74.0093092397542,40.2360887754999],[-74.0093151788499,40.2360940443675],[-74.0093553226384,40.2361253452365]]}},{"type":"Feature","id":4125,"properties":{"OBJECTID":4125,"PRIMENAME":"Spier Avenue","ELEVTYP_F":0,"ELEVTYP_T":0},"geometry":{"type":"LineString","coordinates":[[-74.0058199061954,40.2379978208801],[-74.0056500695366,40.237979031788],[-74.0039977949305,40.2377098467303],[-74.0038135339728,40.2376798752877]]}},{"type":"Feature","id":7162,"properties":{"OBJECTID":7162,"PRIMENAME":"Iona Street","ELEVTYP_F":0,"ELEVTYP_T":0},"geometry":{"type":"LineString","coordinates":[[-74.0100997629521,40.2347859109309],[-74.0101756841744,40.2347385473],[-74.0102818651995,40.2346722598285],[-74.0104006492194,40.2345869737417],[-74.0104508112958,40.2345252253697],[-74.0105514137662,40.2343731533385],[-74.0106950057276,40.2341844103314]]}},{"type":"Feature","id":7265,"properties":{"OBJECTID":7265,"PRIMENAME":"Staffa Street","ELEVTYP_F":0,"ELEVTYP_T":0},"geometry":{"type":"LineString","coordinates":[[-74.0133421216021,40.2331320476917],[-74.0132323030027,40.2334169536242],[-74.0131499935691,40.2336215400778],[-74.0130553918442,40.2338070220131],[-74.0129310949931,40.2340376482852]]}},{"type":"Feature","id":8171,"properties":{"OBJECTID":8171,"PRIMENAME":"Corlies Avenue","ELEVTYP_F":0,"ELEVTYP_T":0},"geometry":{"type":"LineString","coordinates":[[-74.0152910595477,40.2391229712328],[-74.0150657808583,40.2390703211137],[-74.0149908245968,40.2390525746033]]}},{"type":"Feature","id":12275,"properties":{"OBJECTID":12275,"PRIMENAME":"Grassmere Avenue","ELEVTYP_F":0,"ELEVTYP_T":0},"geometry":{"type":"LineString","coordinates":[[-74.0241460153958,40.235369376439],[-74.0242303986404,40.2353859479844],[-74.0244845729672,40.2354357241038],[-74.0246263137791,40.2354634804259],[-74.0247387394314,40.2354809629672]]}},{"type":"Feature","id":16234,"properties":{"OBJECTID":16234,"PRIMENAME":"Monmouth Road","ELEVTYP_F":0,"ELEVTYP_T":0},"geometry":{"type":"LineString","coordinates":[[-74.01381410756,40.2372692981204],[-74.0138134632742,40.2376447900703],[-74.0138134004474,40.2376535740179]]}},{"type":"Feature","id":16736,"properties":{"OBJECTID":16736,"PRIMENAME":"Lake Drive","ELEVTYP_F":0,"ELEVTYP_T":0},"geometry":{"type":"LineString","coordinates":[[-74.0080670601187,40.2357064162035],[-74.0080163048036,40.2358396461051],[-74.0079758203271,40.2359737284445],[-74.0079717505687,40.2359872058482],[-74.0079022171471,40.2362157536869]]}},{"type":"Feature","id":18435,"properties":{"OBJECTID":18435,"PRIMENAME":"Main Street","ELEVTYP_F":0,"ELEVTYP_T":0},"geometry":{"type":"LineString","coordinates":[[-74.0079191224544,40.2322174358954],[-74.0078719005054,40.2323339905551]]}},{"type":"Feature","id":40876,"properties":{"OBJECTID":40876,"PRIMENAME":"Sunset Avenue","ELEVTYP_F":0,"ELEVTYP_T":0},"geometry":{"type":"LineString","coordinates":[[-74.0213679959215,40.2305187445954],[-74.0221724837768,40.2307700732302],[-74.0221960007616,40.2307773630573]]}},{"type":"Feature","id":42732,"properties":{"OBJECTID":42732,"PRIMENAME":"Lake Drive","ELEVTYP_F":0,"ELEVTYP_T":0},"geometry":{"type":"LineString","coordinates":[[-74.0082051864953,40.2353203095809],[-74.00812622498,40.235302432623],[-74.0080814180596,40.2352920574377],[-74.0080363905564,40.2352822847449],[-74.007991144611,40.2352731433749],[-74.0079834194713,40.2352714352924],[-74.0079759493889,40.2352692347277],[-74.0079687688411,40.2352664868867],[-74.0079619148464,40.2352632729869],[-74.0079554966886,40.2352595943936],[-74.0079495425715,40.2352554512268],[-74.0079440940057,40.2352509535445],[-74.007939186448,40.2352460735769],[-74.0079245703678,40.2352215790181],[-74.0079108505835,40.2351968135645],[-74.0078979577597,40.2351717769215],[-74.0078859624054,40.2351464693894],[-74.0078748643175,40.2351209188881],[-74.0078700773634,40.2351091214001],[-74.007865972994,40.2350971899129],[-74.0078625864701,40.2350851236757],[-74.0078599163881,40.235072954206],[-74.007857927369,40.2350606984662],[-74.0078566555749,40.2350483935373],[-74.0078629194679,40.2350193204929],[-74.0078701495054,40.2349903902591],[-74.0078783809603,40.2349616002835],[-74.0078875795434,40.2349329792416],[-74.0078930109161,40.2349198796036],[-74.0078992635003,40.2349069761999],[-74.0079062712911,40.2348942957698],[-74.0079140256646,40.2348818932172],[-74.0079200037424,40.2348775260766],[-74.0079265863772,40.2348737379335],[-74.0079337014872,40.234870583422],[-74.0079412773813,40.234868063138],[-74.0079491712861,40.2348662566339],[-74.0079573101269,40.2348651933209],[-74.0079802617508,40.2348664716693],[-74.0080030622808,40.2348686545421],[-74.0080257142573,40.2348717158309],[-74.0080838037652,40.2348831085057],[-74.0081416693683,40.2348950766272],[-74.0081993239949,40.2349076202508],[-74.0082567923244,40.2349207394817],[-74.0082641588134,40.2349224730423],[-74.0082712698521,40.2349247540238],[-74.0082780562953,40.2349275560132],[-74.0082844431417,40.2349308498705],[-74.0082903622128,40.2349346380082],[-74.0082957765421,40.2349388320039],[-74.0083006510311,40.2349434100924],[-74.0083026101658,40.23494989692],[-74.0083037449171,40.2349564631067],[-74.008304054116,40.2349631077469],[-74.0083035407316,40.2349697452899],[-74.0083021676732,40.2349763044252],[-74.0083000080868,40.2349827458342],[-74.0082970613509,40.2349889929574],[-74.0082875577085,40.2350203309516],[-74.0082773015822,40.2350515549657],[-74.0082663309607,40.2350826120215],[-74.0082546456474,40.235113529138],[-74.008242208245,40.2351442773347],[-74.0082328688413,40.2351720745952],[-74.0082243275487,40.2352000121474],[-74.0082166348934,40.2352280911071],[-74.0082098049848,40.2352563106335],[-74.0082037606608,40.2352846154583],[-74.0082018553261,40.2352905103394],[-74.0082008095971,40.2352964935359],[-74.0082006223642,40.2353025560364],[-74.0082012955194,40.2353085987756],[-74.0082028285133,40.235314535287],[-74.0082051864953,40.2353203095809]]}},{"type":"Feature","id":42867,"properties":{"OBJECTID":42867,"PRIMENAME":"Corlies Avenue","ELEVTYP_F":0,"ELEVTYP_T":0},"geometry":{"type":"LineString","coordinates":[[-74.0040957557555,40.2366999634701],[-74.0058318510054,40.2369360956953],[-74.0061175258446,40.2369801454487],[-74.0061749900267,40.2369890055356]]}},{"type":"Feature","id":43484,"properties":{"OBJECTID":43484,"PRIMENAME":"Wildwood Road","ELEVTYP_F":0,"ELEVTYP_T":0},"geometry":{"type":"LineString","coordinates":[[-74.0138090638956,40.24113946096],[-74.0136475998458,40.2411007338678],[-74.0116856851907,40.2406301467219],[-74.0115517222347,40.2405982309986]]}},{"type":"Feature","id":43758,"properties":{"OBJECTID":43758,"PRIMENAME":"Main Street","ELEVTYP_F":0,"ELEVTYP_T":0},"geometry":{"type":"LineString","coordinates":[[-74.0054885567489,40.2389087311497],[-74.0054047821553,40.2391438508181]]}},{"type":"Feature","id":44230,"properties":{"OBJECTID":44230,"PRIMENAME":"Staffa Street","ELEVTYP_F":0,"ELEVTYP_T":0},"geometry":{"type":"LineString","coordinates":[[-74.0123916983326,40.2349053720137],[-74.0122940691571,40.2350429916359],[-74.0122060359432,40.2351760663149],[-74.0121056433921,40.2353043125809],[-74.011999254477,40.2353944298152],[-74.0119356096581,40.2354346293557],[-74.0118493488625,40.2354891126388],[-74.0117022478515,40.2355820219747]]}},{"type":"Feature","id":45478,"properties":{"OBJECTID":45478,"PRIMENAME":"Monmouth Road","ELEVTYP_F":0,"ELEVTYP_T":0},"geometry":{"type":"LineString","coordinates":[[-74.0138160771155,40.2365731100354],[-74.0138149667938,40.2367283525784],[-74.0138149049335,40.2367683861007],[-74.0138147509231,40.2368646830503]]}},{"type":"Feature","id":46011,"properties":{"OBJECTID":46011,"PRIMENAME":"Corlies Avenue","ELEVTYP_F":0,"ELEVTYP_T":0},"geometry":{"type":"LineString","coordinates":[[-74.0071517168921,40.2371823712361],[-74.0069593470626,40.2371442714662]]}},{"type":"Feature","id":46271,"properties":{"OBJECTID":46271,"PRIMENAME":"South Edgemere Drive","ELEVTYP_F":0,"ELEVTYP_T":0},"geometry":{"type":"LineString","coordinates":[[-74.0091329952082,40.2376616269368],[-74.0091127443438,40.2375344091205],[-74.0091261711949,40.2373962712403],[-74.0091461412657,40.2372152244801],[-74.0091969279704,40.2370724408642],[-74.0092400680082,40.2369814816385]]}},{"type":"Feature","id":46405,"properties":{"OBJECTID":46405,"PRIMENAME":"Woodlock Avenue","ELEVTYP_F":0,"ELEVTYP_T":0},"geometry":{"type":"LineString","coordinates":[[-74.0197853844269,40.2316663439324],[-74.0198286193469,40.2315849074121],[-74.0205324873831,40.2302584409003]]}},{"type":"Feature","id":46488,"properties":{"OBJECTID":46488,"PRIMENAME":"Bridlemere Avenue","ELEVTYP_F":0,"ELEVTYP_T":0},"geometry":{"type":"LineString","coordinates":[[-74.0096463031811,40.2337377998155],[-74.0096738448072,40.2336116419209],[-74.0097188435455,40.2334116500362],[-74.0097255879807,40.2333306382816],[-74.0097138479856,40.2332400506783],[-74.0096961493393,40.2331065299947],[-74.0096905737775,40.2330254660465],[-74.0096908306065,40.2330245619629]]}},{"type":"Feature","id":48074,"properties":{"OBJECTID":48074,"PRIMENAME":"Raymere Avenue","ELEVTYP_F":0,"ELEVTYP_T":0},"geometry":{"type":"LineString","coordinates":[[-74.0238941178062,40.2367312981327],[-74.0239818670141,40.2367432173436],[-74.0240296425628,40.2367497122019],[-74.0247274148988,40.2368445604104],[-74.0248108692047,40.2368559389685]]}},{"type":"Feature","id":48091,"properties":{"OBJECTID":48091,"PRIMENAME":"Bendermere Avenue","ELEVTYP_F":0,"ELEVTYP_T":0},"geometry":{"type":"LineString","coordinates":[[-74.0205761418252,40.2364512856934],[-74.0222925662077,40.2369910974561],[-74.0236639686034,40.237416140436],[-74.0237661599286,40.2374478564849]]}},{"type":"Feature","id":48504,"properties":{"OBJECTID":48504,"PRIMENAME":"Main Street","ELEVTYP_F":0,"ELEVTYP_T":0},"geometry":{"type":"LineString","coordinates":[[-74.0058199061954,40.2379978208801],[-74.0055106798231,40.2388467003485],[-74.0054885567489,40.2389087311497]]}},{"type":"Feature","id":49837,"properties":{"OBJECTID":49837,"PRIMENAME":"Rona Street","ELEVTYP_F":0,"ELEVTYP_T":0},"geometry":{"type":"LineString","coordinates":[[-74.020810820236,40.2356001625528],[-74.0207845710704,40.2356551504409],[-74.0207337427734,40.2358074383936],[-74.0206826451979,40.2359978838077],[-74.0205993815476,40.2363406664451],[-74.0205761418252,40.2364512856934]]}},{"type":"Feature","id":49839,"properties":{"OBJECTID":49839,"PRIMENAME":"Laurel Avenue","ELEVTYP_F":0,"ELEVTYP_T":0},"geometry":{"type":"LineString","coordinates":[[-74.0138105349405,40.2380542023501],[-74.0137112287067,40.2380304236228],[-74.012860708778,40.237826663598],[-74.011844449323,40.2375829139655]]}},{"type":"Feature","id":49853,"properties":{"OBJECTID":49853,"PRIMENAME":"Bridlemere Avenue","ELEVTYP_F":0,"ELEVTYP_T":0},"geometry":{"type":"LineString","coordinates":[[-74.0096908306065,40.2330245619629],[-74.0097223149119,40.2329302863869],[-74.0098436225467,40.232554783776],[-74.009862229123,40.2324971855735],[-74.0098920348947,40.232392141648]]}},{"type":"Feature","id":50704,"properties":{"OBJECTID":50704,"PRIMENAME":"Staffa Street","ELEVTYP_F":0,"ELEVTYP_T":0},"geometry":{"type":"LineString","coordinates":[[-74.0112939074218,40.2389336921649],[-74.0112030911716,40.2391589402341],[-74.0110448149793,40.2395443066811],[-74.0110209332972,40.2396024879637]]}},{"type":"Feature","id":51274,"properties":{"OBJECTID":51274,"PRIMENAME":"Windermere Avenue","ELEVTYP_F":0,"ELEVTYP_T":0},"geometry":{"type":"LineString","coordinates":[[-74.0116555438675,40.2321804974886],[-74.0116931667226,40.2321236376079],[-74.0117932154144,40.2320477964678],[-74.011892987995,40.2320053094318],[-74.0120237826145,40.2319772827417],[-74.0121481064124,40.2319825560647],[-74.0124647900149,40.2320506273022],[-74.013636816498,40.2322591463219]]}},{"type":"Feature","id":51463,"properties":{"OBJECTID":51463,"PRIMENAME":"Lake Drive","ELEVTYP_F":0,"ELEVTYP_T":0},"geometry":{"type":"LineString","coordinates":[[-74.0071619001541,40.2391719168523],[-74.0071842670783,40.2391008557793],[-74.0072606440488,40.2388581449155],[-74.0073051701809,40.2387248339624],[-74.0073309622131,40.2385962744219],[-74.0073316876635,40.2384961854462],[-74.0073200184469,40.2383912953877],[-74.0072279498125,40.238224075503]]}},{"type":"Feature","id":51841,"properties":{"OBJECTID":51841,"PRIMENAME":"Edgemere Place","ELEVTYP_F":0,"ELEVTYP_T":0},"geometry":{"type":"LineString","coordinates":[[-74.009568524628,40.2365932297784],[-74.0095533830735,40.2365710785415],[-74.009536768426,40.2365403710214],[-74.0095210878907,40.2365093657337],[-74.0095063400964,40.2364780896931],[-74.0094901924509,40.2364422782597],[-74.0094735432006,40.2364066025],[-74.0094563547534,40.2363710604533],[-74.009439478794,40.2363370031281],[-74.0094234270631,40.2363027295309],[-74.0094081302369,40.2362682375671],[-74.0093909725375,40.2362333297104],[-74.009374928771,40.2361981221473],[-74.0093599613106,40.2361626174208],[-74.0093575018265,40.2361559087282],[-74.009355759994,40.2361490931964],[-74.0093547358127,40.2361421708255],[-74.0093544275094,40.2361352244693],[-74.0093548360703,40.2361282802514],[-74.0093553226384,40.2361253452365]]}},{"type":"Feature","id":51922,"properties":{"OBJECTID":51922,"PRIMENAME":"Iona Street","ELEVTYP_F":0,"ELEVTYP_T":0},"geometry":{"type":"LineString","coordinates":[[-74.0114609107396,40.2327230970838],[-74.0114719092824,40.2326231341943],[-74.0114944372338,40.2325617631676],[-74.0115924342905,40.2322947899119],[-74.0116303034053,40.2322187144304],[-74.0116555438675,40.2321804974886]]}},{"type":"Feature","id":52804,"properties":{"OBJECTID":52804,"PRIMENAME":"Allen Avenue","ELEVTYP_F":0,"ELEVTYP_T":0},"geometry":{"type":"LineString","coordinates":[[-74.0065153026869,40.2360250116048],[-74.0071934333468,40.2361221171964],[-74.0072946726313,40.2361354908207],[-74.0078271376113,40.2362058261128],[-74.0079022171471,40.2362157536869]]}},{"type":"Feature","id":54488,"properties":{"OBJECTID":54488,"PRIMENAME":"Myrtle Avenue","ELEVTYP_F":0,"ELEVTYP_T":0},"geometry":{"type":"LineString","coordinates":[[-74.0092977319107,40.238471238384],[-74.0093732614979,40.2384887163069],[-74.0111986411683,40.2389110811978],[-74.0112939074218,40.2389336921649]]}},{"type":"Feature","id":57582,"properties":{"OBJECTID":57582,"PRIMENAME":"Bendermere Avenue","ELEVTYP_F":0,"ELEVTYP_T":0},"geometry":{"type":"LineString","coordinates":[[-74.0183307181949,40.235738522001],[-74.0204806406334,40.2364212139467],[-74.0205761418252,40.2364512856934]]}},{"type":"Feature","id":57859,"properties":{"OBJECTID":57859,"PRIMENAME":"Barra Street","ELEVTYP_F":0,"ELEVTYP_T":0},"geometry":{"type":"LineString","coordinates":[[-74.0189610622243,40.2343394778772],[-74.0188450993892,40.2346605191],[-74.0187054726704,40.2350602774532],[-74.0185942036337,40.2352516858248]]}},{"type":"Feature","id":57950,"properties":{"OBJECTID":57950,"PRIMENAME":"Bendermere Avenue","ELEVTYP_F":0,"ELEVTYP_T":0},"geometry":{"type":"LineString","coordinates":[[-74.0111442903724,40.2334779648888],[-74.0118621818767,40.2337019044633],[-74.0129310949931,40.2340376482852]]}},{"type":"Feature","id":58035,"properties":{"OBJECTID":58035,"PRIMENAME":"Deal Lake Drive","ELEVTYP_F":0,"ELEVTYP_T":0},"geometry":{"type":"LineString","coordinates":[[-74.0058376798219,40.2304080729576],[-74.005651979625,40.2304160641749],[-74.0052834677098,40.2304287922376],[-74.0050502417491,40.2304313644678],[-74.0049010564138,40.2304271570543],[-74.0047471947684,40.2304157655213],[-74.0045421694704,40.2303970160781],[-74.0042299938158,40.2303563678363],[-74.0039457379655,40.2303229753147],[-74.0037546709151,40.2303007158509],[-74.0036195596597,40.2302822654124],[-74.0035204234575,40.2302763497289]]}},{"type":"Feature","id":58192,"properties":{"OBJECTID":58192,"PRIMENAME":"Monmouth Road","ELEVTYP_F":0,"ELEVTYP_T":0},"geometry":{"type":"LineString","coordinates":[[-74.0138072580863,40.2395239625998],[-74.0138081325999,40.2402731692475]]}},{"type":"Feature","id":58796,"properties":{"OBJECTID":58796,"PRIMENAME":"Edgemont Drive","ELEVTYP_F":0,"ELEVTYP_T":0},"geometry":{"type":"LineString","coordinates":[[-74.0070950852929,40.2328297695311],[-74.0074874703152,40.2329547567222],[-74.0076156206037,40.2329955744542]]}},{"type":"Feature","id":59941,"properties":{"OBJECTID":59941,"PRIMENAME":"South Edgemere Drive","ELEVTYP_F":0,"ELEVTYP_T":0},"geometry":{"type":"LineString","coordinates":[[-74.009568524628,40.2365932297784],[-74.0096422604023,40.2365453204575],[-74.0097732359072,40.2364886639879],[-74.0100163560855,40.2364134582928],[-74.0102903253794,40.2363669328858],[-74.0109064390803,40.2363075785147],[-74.0110930898259,40.2362940915446],[-74.0112610101593,40.2362900515429],[-74.0114164346297,40.236300206211],[-74.0115841496381,40.2363247430629],[-74.0121679056141,40.2364463760182],[-74.0123037320325,40.236472177051]]}},{"type":"Feature","id":60758,"properties":{"OBJECTID":60758,"PRIMENAME":"Monmouth Road","ELEVTYP_F":0,"ELEVTYP_T":0},"geometry":{"type":"LineString","coordinates":[[-74.0138147509231,40.2368646830503],[-74.0138145254511,40.2370061346755]]}},{"type":"Feature","id":61002,"properties":{"OBJECTID":61002,"PRIMENAME":"South Edgemere Drive","ELEVTYP_F":0,"ELEVTYP_T":0},"geometry":{"type":"LineString","coordinates":[[-74.0123037320325,40.236472177051],[-74.0125528834945,40.2365194840585],[-74.0127143344428,40.2365535183534],[-74.0128571576473,40.2365827247986],[-74.0129626240847,40.2366213002347],[-74.0130616879406,40.2366836776047],[-74.0131420205981,40.2367555015591],[-74.0132406401058,40.2368750594008],[-74.0133577513085,40.2370233010183],[-74.013450411266,40.2371047029503],[-74.0135245820115,40.2371717515103],[-74.0136236811718,40.2372293784225],[-74.0137292855356,40.2372488739932],[-74.01381410756,40.2372692981204]]}},{"type":"Feature","id":61324,"properties":{"OBJECTID":61324,"PRIMENAME":"Bendermere Avenue","ELEVTYP_F":0,"ELEVTYP_T":0},"geometry":{"type":"LineString","coordinates":[[-74.0129310949931,40.2340376482852],[-74.0140152429042,40.2343781963284],[-74.0147368861794,40.2346061967357]]}},{"type":"Feature","id":63677,"properties":{"OBJECTID":63677,"PRIMENAME":"Fernmere Avenue","ELEVTYP_F":0,"ELEVTYP_T":0},"geometry":{"type":"LineString","coordinates":[[-74.0201163305504,40.2374481262058],[-74.0207767573399,40.2376425635102],[-74.0221235384075,40.2380341674221],[-74.0234082833658,40.2384064213731],[-74.0235117056961,40.2384364143313]]}},{"type":"Feature","id":66206,"properties":{"OBJECTID":66206,"PRIMENAME":"Wickapecko Drive","ELEVTYP_F":0,"ELEVTYP_T":0},"geometry":{"type":"LineString","coordinates":[[-74.0232675565171,40.2392723768498],[-74.0233466038902,40.2389931559162],[-74.0234968362167,40.2384879082339],[-74.0235117056961,40.2384364143313]]}},{"type":"Feature","id":67890,"properties":{"OBJECTID":67890,"PRIMENAME":"Myrtle Avenue","ELEVTYP_F":0,"ELEVTYP_T":0},"geometry":{"type":"LineString","coordinates":[[-74.0138072580863,40.2395239625998],[-74.014458163131,40.2396825970716],[-74.0159544516451,40.2400367691237],[-74.0160681400018,40.2400636809404]]}},{"type":"Feature","id":69832,"properties":{"OBJECTID":69832,"PRIMENAME":"Main Street","ELEVTYP_F":0,"ELEVTYP_T":0},"geometry":{"type":"LineString","coordinates":[[-74.0078040083318,40.2325276995071],[-74.007796602138,40.2325460965854],[-74.007697796567,40.2327914876423],[-74.0076156206037,40.2329955744542]]}},{"type":"Feature","id":72965,"properties":{"OBJECTID":72965,"PRIMENAME":"Grassmere Avenue","ELEVTYP_F":0,"ELEVTYP_T":0},"geometry":{"type":"LineString","coordinates":[[-74.0114609107396,40.2327230970838],[-74.0133237395959,40.2331281272465],[-74.0133421216021,40.2331320476917]]}},{"type":"Feature","id":74472,"properties":{"OBJECTID":74472,"PRIMENAME":"Woodlock Avenue","ELEVTYP_F":0,"ELEVTYP_T":0},"geometry":{"type":"LineString","coordinates":[[-74.0205324873831,40.2302584409003],[-74.0210196981836,40.2293402797692],[-74.0211006438456,40.2291877324457]]}},{"type":"Feature","id":76132,"properties":{"OBJECTID":76132,"PRIMENAME":"Beechwood Avenue","ELEVTYP_F":0,"ELEVTYP_T":0},"geometry":{"type":"LineString","coordinates":[[-74.0138134004474,40.2376535740179],[-74.0136768717829,40.2376203872324],[-74.0120999732396,40.2372372406989],[-74.0119974119716,40.2372130072529]]}},{"type":"Feature","id":77638,"properties":{"OBJECTID":77638,"PRIMENAME":"Palmer Avenue","ELEVTYP_F":0,"ELEVTYP_T":0},"geometry":{"type":"LineString","coordinates":[[-74.0154926687113,40.240671530255],[-74.014570789723,40.2404599725048],[-74.0138081325999,40.2402731692475]]}},{"type":"Feature","id":78293,"properties":{"OBJECTID":78293,"PRIMENAME":"Laurel Avenue","ELEVTYP_F":0,"ELEVTYP_T":0},"geometry":{"type":"LineString","coordinates":[[-74.0238532689848,40.23129143144],[-74.0233246120154,40.2322904459902],[-74.0232780023921,40.2323785690864]]}},{"type":"Feature","id":78569,"properties":{"OBJECTID":78569,"PRIMENAME":"South Edgemere Drive","ELEVTYP_F":0,"ELEVTYP_T":0},"geometry":{"type":"LineString","coordinates":[[-74.0150942636004,40.2383617295126],[-74.0150761622691,40.2384889224991],[-74.0150492262335,40.23877478148],[-74.0150041740231,40.2389890506285],[-74.0149908245968,40.2390525746033]]}},{"type":"Feature","id":79339,"properties":{"OBJECTID":79339,"PRIMENAME":"Lady Bees Drive","ELEVTYP_F":0,"ELEVTYP_T":0},"geometry":{"type":"LineString","coordinates":[[-74.0058420855365,40.2420766540511],[-74.0059752778665,40.2417267930383],[-74.0060853355512,40.2414102154377],[-74.0061876101225,40.2411160194027],[-74.0062929351124,40.240813051168],[-74.0064365786563,40.2404193923533]]}},{"type":"Feature","id":79340,"properties":{"OBJECTID":79340,"PRIMENAME":"Windermere Avenue","ELEVTYP_F":0,"ELEVTYP_T":0},"geometry":{"type":"LineString","coordinates":[[-74.013636816498,40.2322591463219],[-74.013644794105,40.2322605245431],[-74.0154148657466,40.2325782437781],[-74.0155396775866,40.2326006462171]]}},{"type":"Feature","id":80754,"properties":{"OBJECTID":80754,"PRIMENAME":"North Edgemere Drive","ELEVTYP_F":0,"ELEVTYP_T":0},"geometry":{"type":"LineString","coordinates":[[-74.0091969600606,40.2379303385595],[-74.0091484513658,40.2377585448709],[-74.0091329952082,40.2376616269368]]}},{"type":"Feature","id":81111,"properties":{"OBJECTID":81111,"PRIMENAME":"Spier Avenue","ELEVTYP_F":0,"ELEVTYP_T":0},"geometry":{"type":"LineString","coordinates":[[-74.0068158669021,40.2381537164007],[-74.0065882496331,40.238114863265],[-74.0061098746372,40.2380332038492],[-74.0060539905247,40.238023664165],[-74.0058199061954,40.2379978208801]]}},{"type":"Feature","id":81196,"properties":{"OBJECTID":81196,"PRIMENAME":"Staffa Street","ELEVTYP_F":0,"ELEVTYP_T":0},"geometry":{"type":"LineString","coordinates":[[-74.0123037320325,40.236472177051],[-74.0122728556148,40.236546854604],[-74.0119974119716,40.2372130072529]]}},{"type":"Feature","id":81751,"properties":{"OBJECTID":81751,"PRIMENAME":"Darlene Avenue","ELEVTYP_F":0,"ELEVTYP_T":0},"geometry":{"type":"LineString","coordinates":[[-74.023158207059,40.2396426438442],[-74.0232734489641,40.2396579976229],[-74.0240085918769,40.2397558961365],[-74.0245763864186,40.2398315037524]]}},{"type":"Feature","id":82815,"properties":{"OBJECTID":82815,"PRIMENAME":"Scarba Street","ELEVTYP_F":0,"ELEVTYP_T":0},"geometry":{"type":"LineString","coordinates":[[-74.0158044071238,40.2363583977401],[-74.0159237650351,40.2362020339968],[-74.0160180919339,40.2360594843778],[-74.0161059818196,40.2359407079159],[-74.0161876759691,40.2358266826278],[-74.0162755980651,40.2357031299236],[-74.0163953924268,40.2354700657065],[-74.0165477712616,40.2351779221448]]}},{"type":"Feature","id":84721,"properties":{"OBJECTID":84721,"PRIMENAME":"Wickapecko Drive","ELEVTYP_F":0,"ELEVTYP_T":0},"geometry":{"type":"LineString","coordinates":[[-74.0237661599286,40.2374478564849],[-74.0238796319274,40.2368098344339],[-74.0238941178062,40.2367312981327]]}},{"type":"Feature","id":84894,"properties":{"OBJECTID":84894,"PRIMENAME":"Main Street","ELEVTYP_F":0,"ELEVTYP_T":0},"geometry":{"type":"LineString","coordinates":[[-74.0074120969527,40.2335274464577],[-74.0073706369574,40.2336357923991],[-74.0072836245295,40.233878925735]]}},{"type":"Feature","id":85158,"properties":{"OBJECTID":85158,"PRIMENAME":"Scarba Street","ELEVTYP_F":0,"ELEVTYP_T":0},"geometry":{"type":"LineString","coordinates":[[-74.0170956918606,40.2339400191957],[-74.0172042939142,40.2336528258314],[-74.0174202310056,40.2330245987132],[-74.0174461628322,40.2329489930416]]}},{"type":"Feature","id":86042,"properties":{"OBJECTID":86042,"PRIMENAME":"Monmouth Road","ELEVTYP_F":0,"ELEVTYP_T":0},"geometry":{"type":"LineString","coordinates":[[-74.0138081325999,40.2402731692475],[-74.0138088785989,40.2409000205303],[-74.0138090638956,40.24113946096]]}},{"type":"Feature","id":88455,"properties":{"OBJECTID":88455,"PRIMENAME":"North Wanamassa Drive","ELEVTYP_F":0,"ELEVTYP_T":0},"geometry":{"type":"LineString","coordinates":[[-74.0221719104242,40.2326508104123],[-74.0220659152095,40.2326569890785],[-74.0219726794203,40.23265185481],[-74.0218191317727,40.2326048802288],[-74.0217989379293,40.2325987028723],[-74.0213116631967,40.2324456995983]]}},{"type":"Feature","id":89603,"properties":{"OBJECTID":89603,"PRIMENAME":"Windermere Avenue","ELEVTYP_F":0,"ELEVTYP_T":0},"geometry":{"type":"LineString","coordinates":[[-74.0193013651296,40.2332886409166],[-74.0196814158773,40.2333581084335],[-74.0209235447313,40.2335824919045],[-74.0212961932106,40.2336507427042],[-74.0214575029303,40.2336943176204],[-74.0215319492953,40.2337279807609],[-74.0216059885151,40.2338093262584],[-74.0216424726141,40.2339286201731],[-74.02165999202,40.2340859681936],[-74.0216588856392,40.2342432104084],[-74.0216472033425,40.2342986351894]]}},{"type":"Feature","id":90323,"properties":{"OBJECTID":90323,"PRIMENAME":"Wickapecko Drive","ELEVTYP_F":0,"ELEVTYP_T":0},"geometry":{"type":"LineString","coordinates":[[-74.0227637417035,40.2408809604863],[-74.0228076573964,40.2407896157504],[-74.0228646247979,40.2406609065788],[-74.0229531457759,40.2403438672883],[-74.0231300032811,40.2397362222802],[-74.023158207059,40.2396426438442]]}},{"type":"Feature","id":91425,"properties":{"OBJECTID":91425,"PRIMENAME":"Woodmere Avenue","ELEVTYP_F":0,"ELEVTYP_T":0},"geometry":{"type":"LineString","coordinates":[[-74.0156474625115,40.2370592604082],[-74.0157794349658,40.2370594073291],[-74.0157995206402,40.2370594301164],[-74.0161084152955,40.2370597817064],[-74.01627212688,40.2370599679922]]}},{"type":"Feature","id":93895,"properties":{"OBJECTID":93895,"PRIMENAME":"Barra Street","ELEVTYP_F":0,"ELEVTYP_T":0},"geometry":{"type":"LineString","coordinates":[[-74.0185942036337,40.2352516858248],[-74.0185921549694,40.2352552124259],[-74.0183716129454,40.2356594099811],[-74.0183307181949,40.235738522001]]}},{"type":"Feature","id":96664,"properties":{"OBJECTID":96664,"PRIMENAME":"Edgewood Avenue","ELEVTYP_F":0,"ELEVTYP_T":0},"geometry":{"type":"LineString","coordinates":[[-74.0213679959215,40.2305187445954],[-74.0206096317812,40.2319408260966],[-74.020499067153,40.2321481559537]]}},{"type":"Feature","id":102065,"properties":{"OBJECTID":102065,"PRIMENAME":"Spier Avenue","ELEVTYP_F":0,"ELEVTYP_T":0},"geometry":{"type":"LineString","coordinates":[[-74.0072279498125,40.238224075503],[-74.0068158669021,40.2381537164007]]}},{"type":"Feature","id":102587,"properties":{"OBJECTID":102587,"PRIMENAME":"Cedar Avenue","ELEVTYP_F":0,"ELEVTYP_T":0},"geometry":{"type":"LineString","coordinates":[[-74.0054885567489,40.2389087311497],[-74.0061028109844,40.2390053459177],[-74.0062758516494,40.2390325620484],[-74.0071619001541,40.2391719168523]]}},{"type":"Feature","id":103148,"properties":{"OBJECTID":103148,"PRIMENAME":"Deal Lake Drive","ELEVTYP_F":0,"ELEVTYP_T":0},"geometry":{"type":"LineString","coordinates":[[-74.008498498557,40.229545261528],[-74.0082323514167,40.2295834704312],[-74.0079756246663,40.2296216917484],[-74.0077374859853,40.2296599906533],[-74.0075273805641,40.2296948399007],[-74.0073638463004,40.2297334563481],[-74.0071676153783,40.2297862350635],[-74.0070553427838,40.2298286657063],[-74.006966536444,40.2298604611328]]}},{"type":"Feature","id":106491,"properties":{"OBJECTID":106491,"PRIMENAME":"Bendermere Avenue","ELEVTYP_F":0,"ELEVTYP_T":0},"geometry":{"type":"LineString","coordinates":[[-74.0165477712616,40.2351779221448],[-74.0181538060771,40.2356823323764],[-74.0183307181949,40.235738522001]]}},{"type":"Feature","id":108734,"properties":{"OBJECTID":108734,"PRIMENAME":"Emory Street","ELEVTYP_F":0,"ELEVTYP_T":0},"geometry":{"type":"LineString","coordinates":[[-74.0058882959527,40.2284801671523],[-74.0056559545941,40.2291205187966],[-74.0057223084999,40.2295905955]]}},{"type":"Feature","id":111743,"properties":{"OBJECTID":111743,"PRIMENAME":"Ivy Place","ELEVTYP_F":0,"ELEVTYP_T":0},"geometry":{"type":"LineString","coordinates":[[-74.0158187878332,40.240746367877],[-74.0154926687113,40.240671530255]]}},{"type":"Feature","id":115714,"properties":{"OBJECTID":115714,"PRIMENAME":"Emory Street","ELEVTYP_F":0,"ELEVTYP_T":0},"geometry":{"type":"LineString","coordinates":[[-74.0057223084999,40.2295905955],[-74.0058215344971,40.2302936641457],[-74.0058376798219,40.2304080729576]]}},{"type":"Feature","id":120625,"properties":{"OBJECTID":120625,"PRIMENAME":"Bruns Road","ELEVTYP_F":0,"ELEVTYP_T":0},"geometry":{"type":"LineString","coordinates":[[-74.020424185152,40.2419048313251],[-74.0204104243701,40.2419551630256],[-74.0202934237218,40.2422211648059],[-74.0201364236121,40.2426191626896],[-74.0201004251631,40.2426821636913],[-74.0200614237885,40.2427361626708],[-74.0200244240837,40.2427741641852],[-74.0199364246204,40.2428021630001],[-74.0198554232377,40.2428101635502],[-74.0197864256293,40.2428061647289],[-74.0190004225097,40.2426191637248],[-74.0182644253669,40.2424341632732],[-74.018203425842,40.2424111630043],[-74.0180444231943,40.2423331642972],[-74.0179604228267,40.2422811648091],[-74.0178594237727,40.2422061625623],[-74.0177464245333,40.2421401646292],[-74.0176364241662,40.2420911638633],[-74.0175084248868,40.2420481647577],[-74.0174024233603,40.2420211639214],[-74.0172934232282,40.2420031643571],[-74.0169654228573,40.2419731627512],[-74.0168604226269,40.24195316288],[-74.0167704232658,40.2419281637996],[-74.016687422445,40.2418921634066],[-74.0166254236559,40.2418511637055],[-74.0165684234683,40.2417921634036],[-74.0165254229194,40.2417261639299],[-74.0165034218799,40.2416761633548],[-74.0164874227333,40.2416141639443],[-74.0164834231464,40.2415201635243],[-74.0164954227952,40.2414671625623],[-74.0165374232129,40.2413761634884],[-74.0165984238132,40.2412791642564],[-74.0167084252885,40.241135162954],[-74.0167404224401,40.2410811637666],[-74.0167724237783,40.2410151622963],[-74.0167934249226,40.2409581629923],[-74.0168084238653,40.2409001623016],[-74.0168144236356,40.2408201621682],[-74.0168404240404,40.2407071631241],[-74.0168814226775,40.2406071638651],[-74.0169274241867,40.240532163677],[-74.0169964242537,40.2404671631904],[-74.0170884231587,40.2404061630208],[-74.0171464238484,40.2403781636946],[-74.0172474237544,40.2403451639674],[-74.0173814250346,40.2403231638211],[-74.0174634236191,40.2403211630932],[-74.0175714233733,40.2403371633501],[-74.0177044245043,40.2403651637095],[-74.0178214240913,40.2403961640232],[-74.017906422982,40.240429164605],[-74.0181144249909,40.2405301634379],[-74.0183474243742,40.2406791634162],[-74.0184484247176,40.2407351629813],[-74.0185784242528,40.2407961638056],[-74.0186694227745,40.2408271640827],[-74.018746423685,40.2408561633442],[-74.0189184245196,40.2409011624467],[-74.0202324249072,40.2412121638432],[-74.0203704250666,40.2412401629481],[-74.0204154249381,40.241255162703],[-74.0204624251698,40.2412751631273],[-74.0205224242138,40.241316163303],[-74.020562424362,40.241358164105],[-74.0205844247549,40.2414181631207],[-74.0205874263635,40.241480163074],[-74.0205764242326,40.2415241637272],[-74.0204493481229,40.2418326066174]]}},{"type":"Feature","id":123304,"properties":{"OBJECTID":123304,"PRIMENAME":"Laurel Avenue","ELEVTYP_F":0,"ELEVTYP_T":0},"geometry":{"type":"LineString","coordinates":[[-74.0248701769282,40.2293696297046],[-74.0248244433904,40.2294560539056],[-74.0240707323438,40.2308804986129],[-74.0240619841789,40.230897029544],[-74.0238532689848,40.23129143144]]}},{"type":"Feature","id":125893,"properties":{"OBJECTID":125893,"PRIMENAME":"Unami Avenue","ELEVTYP_F":0,"ELEVTYP_T":0},"geometry":{"type":"LineString","coordinates":[[-74.0232127068916,40.2288540375047],[-74.022770769052,40.2296954180963],[-74.0222477261625,40.2306798458971],[-74.0221960007616,40.2307773630573]]}},{"type":"Feature","id":132086,"properties":{"OBJECTID":132086,"PRIMENAME":"Beechwood Avenue","ELEVTYP_F":0,"ELEVTYP_T":0},"geometry":{"type":"LineString","coordinates":[[-74.0149221907377,40.2379229498465],[-74.0138134004474,40.2376535740179]]}},{"type":"Feature","id":134098,"properties":{"OBJECTID":134098,"PRIMENAME":"Bridlemere Avenue","ELEVTYP_F":0,"ELEVTYP_T":0},"geometry":{"type":"LineString","coordinates":[[-74.0100997629521,40.2347859109309],[-74.0099776020443,40.234609012362],[-74.0096390753703,40.234116673968],[-74.0095961759606,40.2340354807116],[-74.0096031663442,40.2339353911625],[-74.0096463031811,40.2337377998155]]}},{"type":"Feature","id":137827,"properties":{"OBJECTID":137827,"PRIMENAME":"Deal Parkway","ELEVTYP_F":0,"ELEVTYP_T":0},"geometry":{"type":"LineString","coordinates":[[-74.0118746552293,40.2398065208625],[-74.0118339249219,40.2399063312422],[-74.0115517222347,40.2405982309986]]}},{"type":"Feature","id":143032,"properties":{"OBJECTID":143032,"PRIMENAME":"Camp Avenue","ELEVTYP_F":0,"ELEVTYP_T":0},"geometry":{"type":"LineString","coordinates":[[-74.0190251045669,40.2313973960543],[-74.0190154130913,40.2313861244408],[-74.0190035260491,40.231314615984],[-74.0191934632538,40.2309608569086]]}},{"type":"Feature","id":147002,"properties":{"OBJECTID":147002,"PRIMENAME":"Main Street","ELEVTYP_F":0,"ELEVTYP_T":0},"geometry":{"type":"LineString","coordinates":[[-74.0068560087961,40.235074605649],[-74.0067612774223,40.2353394477577],[-74.0065153026869,40.2360250116048]]}},{"type":"Feature","id":147256,"properties":{"OBJECTID":147256,"PRIMENAME":"Judith Court","ELEVTYP_F":0,"ELEVTYP_T":0},"geometry":{"type":"LineString","coordinates":[[-74.0263773758319,40.2400712448558],[-74.0263601470733,40.2401532566852],[-74.0262214569021,40.2408139906036],[-74.026191799383,40.2408853272443],[-74.0261448787372,40.2409253526473],[-74.0260864311917,40.2409385107569],[-74.026004864436,40.2409381767262],[-74.0245427379851,40.2407445144433],[-74.0244612559384,40.2407218611349],[-74.0244150273776,40.2406680562494],[-74.0243979792483,40.2406009477161],[-74.0244222377987,40.2404669974659],[-74.024554328508,40.2399224454085],[-74.0245763864186,40.2398315037524]]}},{"type":"Feature","id":147709,"properties":{"OBJECTID":147709,"PRIMENAME":"Bridlemere Avenue","ELEVTYP_F":0,"ELEVTYP_T":0},"geometry":{"type":"LineString","coordinates":[[-74.0197245407737,40.2382357579953],[-74.0191567962449,40.2380695097164],[-74.0184989771004,40.2378761728457],[-74.0183623794095,40.2378422221272],[-74.0183133948105,40.2378344967914]]}},{"type":"Feature","id":147814,"properties":{"OBJECTID":147814,"PRIMENAME":"Monmouth Road","ELEVTYP_F":0,"ELEVTYP_T":0},"geometry":{"type":"LineString","coordinates":[[-74.0138134004474,40.2376535740179],[-74.0138105349405,40.2380542023501]]}},{"type":"Feature","id":148997,"properties":{"OBJECTID":148997,"PRIMENAME":"Grassmere Avenue","ELEVTYP_F":0,"ELEVTYP_T":0},"geometry":{"type":"LineString","coordinates":[[-74.0213600666373,40.2348554544218],[-74.0205612885014,40.2346819436173],[-74.0189610622243,40.2343394778772]]}},{"type":"Feature","id":151101,"properties":{"OBJECTID":151101,"PRIMENAME":"Westra Street","ELEVTYP_F":0,"ELEVTYP_T":0},"geometry":{"type":"LineString","coordinates":[[-74.0152116688501,40.2335323256],[-74.0150854741946,40.2339095147088],[-74.0149998552229,40.2341118648531],[-74.0148779720528,40.2343463194599],[-74.0147622339495,40.2345577669046],[-74.0147368861794,40.2346061967357]]}},{"type":"Feature","id":152020,"properties":{"OBJECTID":152020,"PRIMENAME":"Rona Street","ELEVTYP_F":0,"ELEVTYP_T":0},"geometry":{"type":"LineString","coordinates":[[-74.0213600666373,40.2348554544218],[-74.0213560477842,40.2348615875644],[-74.0210926097445,40.2351845735338],[-74.0209544374107,40.2353746587559],[-74.0208413597189,40.2355362145604],[-74.020810820236,40.2356001625528]]}},{"type":"Feature","id":152401,"properties":{"OBJECTID":152401,"PRIMENAME":"South Edgemere Drive","ELEVTYP_F":0,"ELEVTYP_T":0},"geometry":{"type":"LineString","coordinates":[[-74.01381410756,40.2372692981204],[-74.0139713785434,40.2373070742904],[-74.0141388950263,40.2373649610345],[-74.0142877482478,40.2374227971342],[-74.014417867853,40.2374805535448],[-74.0145788797811,40.2375765160077],[-74.0147088017204,40.2376771799696],[-74.0147952345952,40.2377680801702],[-74.014887762493,40.2378733093554],[-74.0149221907377,40.2379229498465]]}},{"type":"Feature","id":152974,"properties":{"OBJECTID":152974,"PRIMENAME":"Bridlemere Avenue","ELEVTYP_F":0,"ELEVTYP_T":0},"geometry":{"type":"LineString","coordinates":[[-74.0153691963909,40.2369498235718],[-74.015234688866,40.236904567328],[-74.0151292242259,40.2368755473522],[-74.0149614326839,40.2368462120537],[-74.0147191387685,40.2368213674121],[-74.0146011412295,40.236801820768],[-74.0144770784393,40.2367536424499],[-74.0143780143398,40.2366912671895],[-74.0141244800409,40.2364900197791],[-74.0138183029568,40.236261894517]]}},{"type":"Feature","id":154419,"properties":{"OBJECTID":154419,"PRIMENAME":"Hume Street","ELEVTYP_F":0,"ELEVTYP_T":0},"geometry":{"type":"LineString","coordinates":[[-74.0048264970778,40.2340645318768],[-74.0049697113293,40.234053697021],[-74.0061394282042,40.233965350706],[-74.0070602768367,40.2338957908142],[-74.0072836245295,40.233878925735]]}},{"type":"Feature","id":155918,"properties":{"OBJECTID":155918,"PRIMENAME":"Myrtle Avenue","ELEVTYP_F":0,"ELEVTYP_T":0},"geometry":{"type":"LineString","coordinates":[[-74.0112939074218,40.2389336921649],[-74.0129991122633,40.2393380887343],[-74.0136821700694,40.2394934592381],[-74.0138072580863,40.2395239625998]]}},{"type":"Feature","id":157252,"properties":{"OBJECTID":157252,"PRIMENAME":"Rona Street","ELEVTYP_F":0,"ELEVTYP_T":0},"geometry":{"type":"LineString","coordinates":[[-74.0205761418252,40.2364512856934],[-74.0205543835593,40.2365549660213],[-74.0205215974547,40.2366224181239]]}},{"type":"Feature","id":158928,"properties":{"OBJECTID":158928,"PRIMENAME":"Wickapecko Drive","ELEVTYP_F":0,"ELEVTYP_T":0},"geometry":{"type":"LineString","coordinates":[[-74.0241460153958,40.235369376439],[-74.0241890424934,40.2351380752926],[-74.024202457532,40.2350687033297],[-74.0242244845648,40.2350026605106],[-74.0242638439832,40.2349267788782],[-74.0243327696879,40.2348539567277],[-74.0244375642175,40.234749239747]]}},{"type":"Feature","id":159334,"properties":{"OBJECTID":159334,"PRIMENAME":"North Wanamassa Drive","ELEVTYP_F":0,"ELEVTYP_T":0},"geometry":{"type":"LineString","coordinates":[[-74.0213116631967,40.2324456995983],[-74.0207069151338,40.232255806439],[-74.0205953554627,40.2322029110796],[-74.0205148175008,40.2321596687032],[-74.020499067153,40.2321481559537]]}},{"type":"Feature","id":160801,"properties":{"OBJECTID":160801,"PRIMENAME":"Grassmere Avenue","ELEVTYP_F":0,"ELEVTYP_T":0},"geometry":{"type":"LineString","coordinates":[[-74.0241292279657,40.2354596543462],[-74.0240388138106,40.2354398524476],[-74.0240385275049,40.2354397891241],[-74.0225296643032,40.235109526436],[-74.0213600666373,40.2348554544218]]}},{"type":"Feature","id":161252,"properties":{"OBJECTID":161252,"PRIMENAME":"Deal Lake Point Road","ELEVTYP_F":0,"ELEVTYP_T":0},"geometry":{"type":"LineString","coordinates":[[-74.0246944725086,40.2342298294515],[-74.0245798326078,40.2342067923561],[-74.0240481944714,40.234099994695],[-74.0238532517174,40.2340608334037],[-74.0236607448403,40.2340219096784],[-74.0235615415039,40.2339785935084],[-74.0234811998436,40.2339067767022],[-74.0234258539477,40.2338207592506],[-74.0234016279737,40.2337253453542],[-74.0234085615743,40.2336252546979],[-74.023465180822,40.2335349499324],[-74.0235465895706,40.2334542726588],[-74.0236589216252,40.2333975515864],[-74.0238083404277,40.2333695332891],[-74.0239513287031,40.2333748986484],[-74.0240531766187,40.2333883483865],[-74.0241004497849,40.2333945916644],[-74.0248083949972,40.2335357233346],[-74.0249163823743,40.2335572494966]]}},{"type":"Feature","id":165349,"properties":{"OBJECTID":165349,"PRIMENAME":"Corlies Avenue","ELEVTYP_F":0,"ELEVTYP_T":0},"geometry":{"type":"LineString","coordinates":[[-74.0083911792291,40.2374712277562],[-74.0082750210023,40.2374405601345],[-74.0080425242118,40.2373791787414],[-74.0080064891806,40.237370410678],[-74.0078659812746,40.2373362220008],[-74.00768057999,40.2372911098403]]}},{"type":"Feature","id":165798,"properties":{"OBJECTID":165798,"PRIMENAME":"Westra Street","ELEVTYP_F":0,"ELEVTYP_T":0},"geometry":{"type":"LineString","coordinates":[[-74.0144900627967,40.2350710754067],[-74.0144514830837,40.235141557461],[-74.0143057557127,40.2353436539581],[-74.0141418791249,40.2355641233587],[-74.0140922414903,40.2356329304577]]}},{"type":"Feature","id":166470,"properties":{"OBJECTID":166470,"PRIMENAME":"Westra Street","ELEVTYP_F":0,"ELEVTYP_T":0},"geometry":{"type":"LineString","coordinates":[[-74.0140922414903,40.2356329304577],[-74.013996149919,40.2357662194405],[-74.0139171716417,40.2358856630939],[-74.0138561742492,40.2360052092387],[-74.0138312500034,40.2361294912829],[-74.0138184264516,40.2362446274316],[-74.0138183029568,40.236261894517]]}},{"type":"Feature","id":166905,"properties":{"OBJECTID":166905,"PRIMENAME":"Corlies Avenue","ELEVTYP_F":0,"ELEVTYP_T":0},"geometry":{"type":"LineString","coordinates":[[-74.0061749900267,40.2369890055356],[-74.0064840842484,40.2370341657573],[-74.0069593470626,40.2371442714662]]}},{"type":"Feature","id":167382,"properties":{"OBJECTID":167382,"PRIMENAME":"Rona Street","ELEVTYP_F":0,"ELEVTYP_T":0},"geometry":{"type":"LineString","coordinates":[[-74.0205215974547,40.2366224181239],[-74.0202956153897,40.2370877061397],[-74.0201163305504,40.2374481262058]]}},{"type":"Feature","id":171261,"properties":{"OBJECTID":171261,"PRIMENAME":"Corlies Avenue","ELEVTYP_F":0,"ELEVTYP_T":0},"geometry":{"type":"LineString","coordinates":[[-74.0149908245968,40.2390525746033],[-74.013806401376,40.238772422301]]}},{"type":"Feature","id":173962,"properties":{"OBJECTID":173962,"PRIMENAME":"Bridlemere Avenue","ELEVTYP_F":0,"ELEVTYP_T":0},"geometry":{"type":"LineString","coordinates":[[-74.0232675565171,40.2392723768498],[-74.0231722864217,40.2392443131683],[-74.0213352315534,40.2387029177981],[-74.0200815170565,40.23834026798],[-74.0197245407737,40.2382357579953]]}},{"type":"Feature","id":177362,"properties":{"OBJECTID":177362,"PRIMENAME":"8th Avenue","ELEVTYP_F":0,"ELEVTYP_T":0},"geometry":{"type":"LineString","coordinates":[[-74.006966536444,40.2298604611328],[-74.0066708603063,40.2297921077293],[-74.0061705131652,40.229685814373],[-74.0057223084999,40.2295905955]]}},{"type":"Feature","id":182187,"properties":{"OBJECTID":182187,"PRIMENAME":"Grassmere Avenue","ELEVTYP_F":0,"ELEVTYP_T":0},"geometry":{"type":"LineString","coordinates":[[-74.0170956918606,40.2339400191957],[-74.0162707390312,40.2337632946923],[-74.0152116688501,40.2335323256]]}},{"type":"Feature","id":182442,"properties":{"OBJECTID":182442,"PRIMENAME":"Garven Avenue","ELEVTYP_F":0,"ELEVTYP_T":0},"geometry":{"type":"LineString","coordinates":[[-74.0230206998184,40.2310332176328],[-74.0240054519768,40.2292000716854],[-74.0240503785087,40.229116416747]]}},{"type":"Feature","id":185097,"properties":{"OBJECTID":185097,"PRIMENAME":"Buttermere Avenue","ELEVTYP_F":0,"ELEVTYP_T":0},"geometry":{"type":"LineString","coordinates":[[-74.0183133948105,40.2378344967914],[-74.0183069004763,40.2377752823833],[-74.018267734153,40.2374171174476],[-74.0182484998899,40.2372412270347],[-74.0182371973945,40.2371377941313]]}},{"type":"Feature","id":186958,"properties":{"OBJECTID":186958,"PRIMENAME":"Bendermere Avenue","ELEVTYP_F":0,"ELEVTYP_T":0},"geometry":{"type":"LineString","coordinates":[[-74.0246855359266,40.2375571626332],[-74.0240245971181,40.2374702780512],[-74.0238603281327,40.2374486834555],[-74.0237661599286,40.2374478564849]]}},{"type":"Feature","id":187074,"properties":{"OBJECTID":187074,"PRIMENAME":"Windermere Avenue","ELEVTYP_F":0,"ELEVTYP_T":0},"geometry":{"type":"LineString","coordinates":[[-74.0155396775866,40.2326006462171],[-74.0160917273468,40.2326997252712],[-74.0173897144536,40.2329386828004],[-74.0174461628322,40.2329489930416]]}},{"type":"Feature","id":188619,"properties":{"OBJECTID":188619,"PRIMENAME":"Sunset Avenue","ELEVTYP_F":0,"ELEVTYP_T":0},"geometry":{"type":"LineString","coordinates":[[-74.0183728994003,40.2292433209995],[-74.018772678705,40.2296598122081],[-74.0187743945151,40.229660951483],[-74.0189026568557,40.2297461412737],[-74.0190267410498,40.2297847886026],[-74.0190517920344,40.2297927438324]]}},{"type":"Feature","id":190660,"properties":{"OBJECTID":190660,"PRIMENAME":"Westra Street","ELEVTYP_F":0,"ELEVTYP_T":0},"geometry":{"type":"LineString","coordinates":[[-74.0138183029568,40.236261894517],[-74.0138169437219,40.236451942331],[-74.0138160771155,40.2365731100354]]}},{"type":"Feature","id":193925,"properties":{"OBJECTID":193925,"PRIMENAME":"Wanamassa Place","ELEVTYP_F":0,"ELEVTYP_T":0},"geometry":{"type":"LineString","coordinates":[[-74.0186882995304,40.2302003013423],[-74.0186557393783,40.2302612474997],[-74.0184228099199,40.230697431701],[-74.0184001956307,40.2307397789211]]}},{"type":"Feature","id":194151,"properties":{"OBJECTID":194151,"PRIMENAME":"Allen Avenue","ELEVTYP_F":0,"ELEVTYP_T":0},"geometry":{"type":"LineString","coordinates":[[-74.0043691591093,40.2357295114635],[-74.0047457085419,40.2357828162944],[-74.0061248575074,40.2359710146607],[-74.0064044461249,40.2360091653817],[-74.0065153026869,40.2360250116048]]}},{"type":"Feature","id":195433,"properties":{"OBJECTID":195433,"PRIMENAME":"Barra Street","ELEVTYP_F":0,"ELEVTYP_T":0},"geometry":{"type":"LineString","coordinates":[[-74.0193013651296,40.2332886409166],[-74.0192770386268,40.233375481403],[-74.0191558434218,40.2338086984217],[-74.0190290179591,40.2341513269826],[-74.0189610622243,40.2343394778772]]}},{"type":"Feature","id":197149,"properties":{"OBJECTID":197149,"PRIMENAME":"Cedar Avenue","ELEVTYP_F":0,"ELEVTYP_T":0},"geometry":{"type":"LineString","coordinates":[[-74.0035687257576,40.2385929352785],[-74.0038479822433,40.2386385779968],[-74.0053573832519,40.2388881028347],[-74.0054885567489,40.2389087311497]]}},{"type":"Feature","id":202940,"properties":{"OBJECTID":202940,"PRIMENAME":"Fernmere Avenue","ELEVTYP_F":0,"ELEVTYP_T":0},"geometry":{"type":"LineString","coordinates":[[-74.0185124105774,40.2369760094854],[-74.0186418485349,40.237014075125],[-74.0201163305504,40.2374481262058]]}},{"type":"Feature","id":203242,"properties":{"OBJECTID":203242,"PRIMENAME":"Wickapecko Drive","ELEVTYP_F":0,"ELEVTYP_T":0},"geometry":{"type":"LineString","coordinates":[[-74.0238941178062,40.2367312981327],[-74.0239457978371,40.2364512768654]]}},{"type":"Feature","id":208196,"properties":{"OBJECTID":208196,"PRIMENAME":"Spier Avenue","ELEVTYP_F":0,"ELEVTYP_T":0},"geometry":{"type":"LineString","coordinates":[[-74.0068158669021,40.2381537164007],[-74.0068497850978,40.2380556359438],[-74.0071229933182,40.2372656489318],[-74.0071517168921,40.2371823712361]]}},{"type":"Feature","id":208441,"properties":{"OBJECTID":208441,"PRIMENAME":"Atlantic Avenue","ELEVTYP_F":0,"ELEVTYP_T":0},"geometry":{"type":"LineString","coordinates":[[-74.0053189745742,40.2393846719559],[-74.0051435985277,40.2398768753613]]}},{"type":"Feature","id":208957,"properties":{"OBJECTID":208957,"PRIMENAME":"Main Street","ELEVTYP_F":0,"ELEVTYP_T":0},"geometry":{"type":"LineString","coordinates":[[-74.008498498557,40.229545261528],[-74.0084634393175,40.2296998709537],[-74.0084404693673,40.2298011688876],[-74.0084001491352,40.2299789886925]]}},{"type":"Feature","id":210517,"properties":{"OBJECTID":210517,"PRIMENAME":"Unami Avenue","ELEVTYP_F":0,"ELEVTYP_T":0},"geometry":{"type":"LineString","coordinates":[[-74.0221960007616,40.2307773630573],[-74.0213528275858,40.2323680700868],[-74.0213116631967,40.2324456995983]]}},{"type":"Feature","id":210856,"properties":{"OBJECTID":210856,"PRIMENAME":"Main Street","ELEVTYP_F":0,"ELEVTYP_T":0},"geometry":{"type":"LineString","coordinates":[[-74.0078719005054,40.2323339905551],[-74.0078337827824,40.2324280726038],[-74.0078192908909,40.2324804992256],[-74.0078110890095,40.2325101134469],[-74.0078040083318,40.2325276995071]]}},{"type":"Feature","id":213821,"properties":{"OBJECTID":213821,"PRIMENAME":"Main Street","ELEVTYP_F":0,"ELEVTYP_T":0},"geometry":{"type":"LineString","coordinates":[[-74.0076156206037,40.2329955744542],[-74.0074120969527,40.2335274464577]]}},{"type":"Feature","id":215552,"properties":{"OBJECTID":215552,"PRIMENAME":"Monmouth Road","ELEVTYP_F":0,"ELEVTYP_T":0},"geometry":{"type":"LineString","coordinates":[[-74.0138105349405,40.2380542023501],[-74.0138062705419,40.2386503957191],[-74.013806401376,40.238772422301]]}},{"type":"Feature","id":216203,"properties":{"OBJECTID":216203,"PRIMENAME":"Scarba Street","ELEVTYP_F":0,"ELEVTYP_T":0},"geometry":{"type":"LineString","coordinates":[[-74.0165477712616,40.2351779221448],[-74.0166160810101,40.2350468198018],[-74.0167673354424,40.2347614802817],[-74.016842894386,40.2346283491331],[-74.0168809300021,40.2345331658765],[-74.0169252946277,40.2344094308197],[-74.0170585304999,40.2340382810632],[-74.0170956918606,40.2339400191957]]}},{"type":"Feature","id":220305,"properties":{"OBJECTID":220305,"PRIMENAME":"Grassmere Avenue","ELEVTYP_F":0,"ELEVTYP_T":0},"geometry":{"type":"LineString","coordinates":[[-74.0133421216021,40.2331320476917],[-74.0151243333257,40.2335134573227],[-74.0152116688501,40.2335323256]]}},{"type":"Feature","id":221220,"properties":{"OBJECTID":221220,"PRIMENAME":"Scarba Street","ELEVTYP_F":0,"ELEVTYP_T":0},"geometry":{"type":"LineString","coordinates":[[-74.0153691963909,40.2369498235718],[-74.0154214449944,40.2368815204379],[-74.0155595315206,40.2367009679065],[-74.0156725206032,40.2365537195541],[-74.0157605828974,40.2364158652406],[-74.0158044071238,40.2363583977401]]}},{"type":"Feature","id":225732,"properties":{"OBJECTID":225732,"PRIMENAME":"Garven Avenue","ELEVTYP_F":0,"ELEVTYP_T":0},"geometry":{"type":"LineString","coordinates":[[-74.0221719104242,40.2326508104123],[-74.0221951636364,40.2326064331956],[-74.0222158034957,40.2325670420951],[-74.0229784573745,40.2311118043304],[-74.0230206998184,40.2310332176328]]}},{"type":"Feature","id":231431,"properties":{"OBJECTID":231431,"PRIMENAME":"South Edgemere Drive","ELEVTYP_F":0,"ELEVTYP_T":0},"geometry":{"type":"LineString","coordinates":[[-74.0094436784244,40.2392295984358],[-74.0093502408592,40.2392075079807],[-74.0091073086664,40.2391500699459],[-74.0092084374404,40.2389264866647],[-74.0092118535659,40.2389172585029]]}},{"type":"Feature","id":234921,"properties":{"OBJECTID":234921,"PRIMENAME":"Staffa Street","ELEVTYP_F":0,"ELEVTYP_T":0},"geometry":{"type":"LineString","coordinates":[[-74.0129310949931,40.2340376482852],[-74.0128221875009,40.2342397339723],[-74.0126961526919,40.2344727412285],[-74.0125830923955,40.2346295127891],[-74.0124322625509,40.2348481676483],[-74.0123916983326,40.2349053720137]]}},{"type":"Feature","id":235275,"properties":{"OBJECTID":235275,"PRIMENAME":"Sunset Avenue","ELEVTYP_F":0,"ELEVTYP_T":0},"geometry":{"type":"LineString","coordinates":[[-74.0238532689848,40.23129143144],[-74.0240673916303,40.2313577466133],[-74.0246823444738,40.23154819825]]}},{"type":"Feature","id":237668,"properties":{"OBJECTID":237668,"PRIMENAME":"Ivy Place","ELEVTYP_F":0,"ELEVTYP_T":0},"geometry":{"type":"LineString","coordinates":[[-74.016354202389,40.2393714294907],[-74.0163193119169,40.2394568533919],[-74.0160977585026,40.2399992647637],[-74.0160681400018,40.2400636809404]]}},{"type":"Feature","id":238715,"properties":{"OBJECTID":238715,"PRIMENAME":"Corlies Avenue","ELEVTYP_F":0,"ELEVTYP_T":0},"geometry":{"type":"LineString","coordinates":[[-74.013806401376,40.238772422301],[-74.0115719368661,40.2382437792051]]}},{"type":"Feature","id":240111,"properties":{"OBJECTID":240111,"PRIMENAME":"North Edgemere Drive","ELEVTYP_F":0,"ELEVTYP_T":0},"geometry":{"type":"LineString","coordinates":[[-74.0092638835618,40.240053642949],[-74.0092709328701,40.2400051367859],[-74.0093098393312,40.2397812905051],[-74.0093676848902,40.2395193650216],[-74.0094188509391,40.2393242037689],[-74.0094436784244,40.2392295984358]]}},{"type":"Feature","id":240568,"properties":{"OBJECTID":240568,"PRIMENAME":"Camp Avenue","ELEVTYP_F":0,"ELEVTYP_T":0},"geometry":{"type":"LineString","coordinates":[[-74.0191934632538,40.2309608569086],[-74.0192869967949,40.2307867309336],[-74.0197072861244,40.2300003157357]]}},{"type":"Feature","id":241659,"properties":{"OBJECTID":241659,"PRIMENAME":"Main Street","ELEVTYP_F":0,"ELEVTYP_T":0},"geometry":{"type":"LineString","coordinates":[[-74.0054047821553,40.2391438508181],[-74.0053189745742,40.2393846719559]]}},{"type":"Feature","id":243592,"properties":{"OBJECTID":243592,"PRIMENAME":"Deal Parkway","ELEVTYP_F":0,"ELEVTYP_T":0},"geometry":{"type":"LineString","coordinates":[[-74.0115517222347,40.2405982309986],[-74.0112236020998,40.2414026833598]]}},{"type":"Feature","id":244552,"properties":{"OBJECTID":244552,"PRIMENAME":"Staffa Street","ELEVTYP_F":0,"ELEVTYP_T":0},"geometry":{"type":"LineString","coordinates":[[-74.0119974119716,40.2372130072529],[-74.011844449323,40.2375829139655]]}},{"type":"Feature","id":245074,"properties":{"OBJECTID":245074,"PRIMENAME":"Comstock Street","ELEVTYP_F":0,"ELEVTYP_T":0},"geometry":{"type":"LineString","coordinates":[[-74.0137228766153,40.2297218595416],[-74.0139668025456,40.2290288583604]]}},{"type":"Feature","id":245980,"properties":{"OBJECTID":245980,"PRIMENAME":"South Edgemere Drive","ELEVTYP_F":0,"ELEVTYP_T":0},"geometry":{"type":"LineString","coordinates":[[-74.0095089862863,40.2366327131299],[-74.0095110796626,40.2366305531937],[-74.009568524628,40.2365932297784]]}},{"type":"Feature","id":247499,"properties":{"OBJECTID":247499,"PRIMENAME":"Grassmere Avenue","ELEVTYP_F":0,"ELEVTYP_T":0},"geometry":{"type":"LineString","coordinates":[[-74.0098920348947,40.232392141648],[-74.0106811387922,40.2325583276091],[-74.0113791208886,40.2327053193834],[-74.0114609107396,40.2327230970838]]}},{"type":"Feature","id":248203,"properties":{"OBJECTID":248203,"PRIMENAME":"South Edgemere Drive","ELEVTYP_F":0,"ELEVTYP_T":0},"geometry":{"type":"LineString","coordinates":[[-74.0149221907377,40.2379229498465],[-74.0149739224075,40.2379975906207],[-74.0150477558293,40.2381122667894],[-74.0150903934578,40.2382363655908],[-74.0150958105619,40.2383508099958],[-74.0150942636004,40.2383617295126]]}},{"type":"Feature","id":248581,"properties":{"OBJECTID":248581,"PRIMENAME":"Main Street","ELEVTYP_F":0,"ELEVTYP_T":0},"geometry":{"type":"LineString","coordinates":[[-74.0061749900267,40.2369890055356],[-74.006116245419,40.2371563781089],[-74.0058469892954,40.2379235134695],[-74.0058199061954,40.2379978208801]]}},{"type":"Feature","id":251043,"properties":{"OBJECTID":251043,"PRIMENAME":"Westra Street","ELEVTYP_F":0,"ELEVTYP_T":0},"geometry":{"type":"LineString","coordinates":[[-74.0147368861794,40.2346061967357],[-74.0145672231625,40.2349301103599],[-74.0144900627967,40.2350710754067]]}},{"type":"Feature","id":252956,"properties":{"OBJECTID":252956,"PRIMENAME":"Staffa Street","ELEVTYP_F":0,"ELEVTYP_T":0},"geometry":{"type":"LineString","coordinates":[[-74.0115719368661,40.2382437792051],[-74.0112939074218,40.2389336921649]]}},{"type":"Feature","id":255614,"properties":{"OBJECTID":255614,"PRIMENAME":"Palmer Avenue","ELEVTYP_F":0,"ELEVTYP_T":0},"geometry":{"type":"LineString","coordinates":[[-74.0118746552293,40.2398065208625],[-74.0111188842732,40.2396256598236],[-74.0110209332972,40.2396024879637]]}},{"type":"Feature","id":255636,"properties":{"OBJECTID":255636,"PRIMENAME":"Iona Street","ELEVTYP_F":0,"ELEVTYP_T":0},"geometry":{"type":"LineString","coordinates":[[-74.0106950057276,40.2341844103314],[-74.0107899723584,40.2340595846853],[-74.0109218342659,40.2338838145636],[-74.0109975087629,40.2337411352305],[-74.011098275842,40.2335557080483],[-74.0111442903724,40.2334779648888]]}},{"type":"Feature","id":256601,"properties":{"OBJECTID":256601,"PRIMENAME":"North Edgemere Drive","ELEVTYP_F":0,"ELEVTYP_T":0},"geometry":{"type":"LineString","coordinates":[[-74.0092218225023,40.2409275485029],[-74.0092209384537,40.2408961664153],[-74.0092162536079,40.2406816616974],[-74.0092113977106,40.2404910113149],[-74.0092316093769,40.2402766112562],[-74.0092638835618,40.240053642949]]}},{"type":"Feature","id":257415,"properties":{"OBJECTID":257415,"PRIMENAME":"Barra Street","ELEVTYP_F":0,"ELEVTYP_T":0},"geometry":{"type":"LineString","coordinates":[[-74.0183307181949,40.235738522001],[-74.0181257016636,40.2361350153995],[-74.0180185799746,40.2363347247877],[-74.0179179573199,40.2364915803405],[-74.017547506309,40.2369952438274],[-74.0174900684938,40.2370733534759]]}},{"type":"Feature","id":257918,"properties":{"OBJECTID":257918,"PRIMENAME":"Iona Street","ELEVTYP_F":0,"ELEVTYP_T":0},"geometry":{"type":"LineString","coordinates":[[-74.0111442903724,40.2334779648888],[-74.011230515403,40.2333322271522],[-74.0112999553709,40.2331895753171],[-74.0113505984626,40.2330706181184],[-74.0114519823282,40.232804153773],[-74.0114609107396,40.2327230970838]]}},{"type":"Feature","id":260931,"properties":{"OBJECTID":260931,"PRIMENAME":"Main Street","ELEVTYP_F":0,"ELEVTYP_T":0},"geometry":{"type":"LineString","coordinates":[[-74.0065153026869,40.2360250116048],[-74.0064248896307,40.2362769409169],[-74.0061749900267,40.2369890055356]]}},{"type":"Feature","id":261005,"properties":{"OBJECTID":261005,"PRIMENAME":"Bridlemere Avenue","ELEVTYP_F":0,"ELEVTYP_T":0},"geometry":{"type":"LineString","coordinates":[[-74.0117022478515,40.2355820219747],[-74.0116063718029,40.235550047223],[-74.0115277830254,40.2355262558686],[-74.0114946403936,40.2355162212477],[-74.0114200634108,40.2355111293076],[-74.0112333461906,40.2355341699144],[-74.0109718108286,40.2355807221845],[-74.0108598749555,40.2355802491672],[-74.010723255494,40.2355606198678],[-74.0104313466512,40.2355022299855],[-74.0103320468887,40.2354731767745],[-74.0102639778144,40.235429980947],[-74.0102334357058,40.2353536164727],[-74.0101731086617,40.2350959944094],[-74.0101311665454,40.234871832479],[-74.0101129863822,40.2348049637921],[-74.0100997629521,40.2347859109309]]}},{"type":"Feature","id":261179,"properties":{"OBJECTID":261179,"PRIMENAME":"North Wanamassa Drive","ELEVTYP_F":0,"ELEVTYP_T":0},"geometry":{"type":"LineString","coordinates":[[-74.0232780023921,40.2323785690864],[-74.0232431364425,40.2323806483222],[-74.0231435041185,40.2324040668651],[-74.0230500012863,40.2324370360526],[-74.0229563292384,40.2324890842314],[-74.022850095856,40.232564909539],[-74.0227503962651,40.232597852936],[-74.0226900740003,40.2326084752542],[-74.0226445287201,40.2326164961112],[-74.0225263008878,40.2326302831319],[-74.0221719104242,40.2326508104123]]}},{"type":"Feature","id":262026,"properties":{"OBJECTID":262026,"PRIMENAME":"Staffa Street","ELEVTYP_F":0,"ELEVTYP_T":0},"geometry":{"type":"LineString","coordinates":[[-74.011844449323,40.2375829139655],[-74.0116019884642,40.238169290225],[-74.0115719368661,40.2382437792051]]}},{"type":"Feature","id":262654,"properties":{"OBJECTID":262654,"PRIMENAME":"Lady Bees Drive","ELEVTYP_F":0,"ELEVTYP_T":0},"geometry":{"type":"LineString","coordinates":[[-74.0064365786563,40.2404193923533],[-74.0065899431297,40.2399992474258],[-74.0066229082559,40.2399089411668]]}},{"type":"Feature","id":264661,"properties":{"OBJECTID":264661,"PRIMENAME":"Bendermere Avenue","ELEVTYP_F":0,"ELEVTYP_T":0},"geometry":{"type":"LineString","coordinates":[[-74.0147368861794,40.2346061967357],[-74.0163544168148,40.2351172135873],[-74.0165477712616,40.2351779221448]]}},{"type":"Feature","id":265065,"properties":{"OBJECTID":265065,"PRIMENAME":"Monmouth Road","ELEVTYP_F":0,"ELEVTYP_T":0},"geometry":{"type":"LineString","coordinates":[[-74.013806401376,40.238772422301],[-74.0138072580863,40.2395239625998]]}},{"type":"Feature","id":267856,"properties":{"OBJECTID":267856,"PRIMENAME":"North Edgemere Drive","ELEVTYP_F":0,"ELEVTYP_T":0},"geometry":{"type":"LineString","coordinates":[[-74.0092977319107,40.238471238384],[-74.0092989909729,40.2384407444216],[-74.0092873189288,40.2383358266227],[-74.0092633178012,40.2382118047259],[-74.0092090863841,40.2379732878748],[-74.0091969600606,40.2379303385595]]}},{"type":"Feature","id":268182,"properties":{"OBJECTID":268182,"PRIMENAME":"Cedar Avenue","ELEVTYP_F":0,"ELEVTYP_T":0},"geometry":{"type":"LineString","coordinates":[[-74.0071619001541,40.2391719168523],[-74.0075067613278,40.239226148655]]}},{"type":"Feature","id":274126,"properties":{"OBJECTID":274126,"PRIMENAME":"Wickapecko Drive","ELEVTYP_F":0,"ELEVTYP_T":0},"geometry":{"type":"LineString","coordinates":[[-74.023158207059,40.2396426438442],[-74.0232315956397,40.2393993885687],[-74.0232675565171,40.2392723768498]]}},{"type":"Feature","id":275062,"properties":{"OBJECTID":275062,"PRIMENAME":"Grassmere Avenue","ELEVTYP_F":0,"ELEVTYP_T":0},"geometry":{"type":"LineString","coordinates":[[-74.0086663349003,40.232117910719],[-74.0097045591229,40.2323526666151],[-74.0097305597282,40.2323581420368],[-74.0098920348947,40.232392141648]]}},{"type":"Feature","id":275583,"properties":{"OBJECTID":275583,"PRIMENAME":"Corlies Avenue","ELEVTYP_F":0,"ELEVTYP_T":0},"geometry":{"type":"LineString","coordinates":[[-74.016354202389,40.2393714294907],[-74.0155018071406,40.2391722240113],[-74.015400748741,40.239148606023],[-74.0152910595477,40.2391229712328]]}},{"type":"Feature","id":276940,"properties":{"OBJECTID":276940,"PRIMENAME":"Raymere Avenue","ELEVTYP_F":0,"ELEVTYP_T":0},"geometry":{"type":"LineString","coordinates":[[-74.0239457978371,40.2364512768654],[-74.0238512677787,40.2364256314704],[-74.0209277654594,40.2356319151756],[-74.020810820236,40.2356001625528]]}},{"type":"Feature","id":277289,"properties":{"OBJECTID":277289,"PRIMENAME":"North Wanamassa Drive","ELEVTYP_F":0,"ELEVTYP_T":0},"geometry":{"type":"LineString","coordinates":[[-74.0197853844269,40.2316663439324],[-74.0197224132773,40.2316464273514],[-74.0192553484675,40.2315080153527]]}},{"type":"Feature","id":279207,"properties":{"OBJECTID":279207,"PRIMENAME":"Corlies Avenue","ELEVTYP_F":0,"ELEVTYP_T":0},"geometry":{"type":"LineString","coordinates":[[-74.0227637417035,40.2408809604863],[-74.0226157866093,40.2408460898082],[-74.0195485329625,40.2401232589403],[-74.0168725494407,40.2394925455917],[-74.016354202389,40.2393714294907]]}},{"type":"Feature","id":279713,"properties":{"OBJECTID":279713,"PRIMENAME":"Staffa Street","ELEVTYP_F":0,"ELEVTYP_T":0},"geometry":{"type":"LineString","coordinates":[[-74.013636816498,40.2322591463219],[-74.013606824501,40.2323509578205],[-74.0135369151794,40.2325650951504],[-74.0135352205539,40.2325703587394],[-74.0134542324829,40.2328221144961],[-74.013371720885,40.2330553055074],[-74.0133421216021,40.2331320476917]]}},{"type":"Feature","id":280245,"properties":{"OBJECTID":280245,"PRIMENAME":"North Edgemere Drive","ELEVTYP_F":0,"ELEVTYP_T":0},"geometry":{"type":"LineString","coordinates":[[-74.0092118535659,40.2389172585029],[-74.0092718607985,40.2387551784709],[-74.0092914514165,40.2386218159542],[-74.0092977319107,40.238471238384]]}},{"type":"Feature","id":280612,"properties":{"OBJECTID":280612,"PRIMENAME":"Palmer Avenue","ELEVTYP_F":0,"ELEVTYP_T":0},"geometry":{"type":"LineString","coordinates":[[-74.0110209332972,40.2396024879637],[-74.0094436784244,40.2392295984358]]}},{"type":"Feature","id":281115,"properties":{"OBJECTID":281115,"PRIMENAME":"Sunset Avenue","ELEVTYP_F":0,"ELEVTYP_T":0},"geometry":{"type":"LineString","coordinates":[[-74.0205324873831,40.2302584409003],[-74.0212603864861,40.2304851089922],[-74.0213679959215,40.2305187445954]]}},{"type":"Feature","id":282644,"properties":{"OBJECTID":282644,"PRIMENAME":"Ivy Place","ELEVTYP_F":0,"ELEVTYP_T":0},"geometry":{"type":"LineString","coordinates":[[-74.0160681400018,40.2400636809404],[-74.0159840868493,40.2402466296584],[-74.0159329712899,40.2404322955877],[-74.0158187878332,40.240746367877]]}},{"type":"Feature","id":283023,"properties":{"OBJECTID":283023,"PRIMENAME":"Bridlemere Avenue","ELEVTYP_F":0,"ELEVTYP_T":0},"geometry":{"type":"LineString","coordinates":[[-74.0156474625115,40.2370592604082],[-74.0156068740768,40.2370395721697],[-74.0154642523985,40.2369817917717],[-74.0153691963909,40.2369498235718]]}},{"type":"Feature","id":284715,"properties":{"OBJECTID":284715,"PRIMENAME":"Corlies Avenue","ELEVTYP_F":0,"ELEVTYP_T":0},"geometry":{"type":"LineString","coordinates":[[-74.0075338439969,40.2372602843795],[-74.007167066418,40.2371848251692],[-74.0071517168921,40.2371823712361]]}},{"type":"Feature","id":285682,"properties":{"OBJECTID":285682,"PRIMENAME":"Wickapecko Drive","ELEVTYP_F":0,"ELEVTYP_T":0},"geometry":{"type":"LineString","coordinates":[[-74.0244375642175,40.234749239747],[-74.0244705295243,40.2347162999514],[-74.0245459085816,40.2346117682352],[-74.0246025875237,40.2345024113348],[-74.0246534095781,40.2343548438114],[-74.0246944725086,40.2342298294515]]}},{"type":"Feature","id":288257,"properties":{"OBJECTID":288257,"PRIMENAME":"Deal Lake Drive","ELEVTYP_F":0,"ELEVTYP_T":0},"geometry":{"type":"LineString","coordinates":[[-74.006966536444,40.2298604611328],[-74.0068729509493,40.229899374829],[-74.0068499358981,40.2299098299042],[-74.0067793745194,40.229941883957],[-74.0067044063005,40.2299916101185],[-74.0066058875705,40.2300734104263],[-74.006446395332,40.2302013999396],[-74.0063526261347,40.2302653483137],[-74.00626837186,40.2303114661335],[-74.0061656095376,40.2303609688961],[-74.0061653937398,40.2303610724529],[-74.0060812939872,40.2303857233589],[-74.0059832062184,40.2304031758004],[-74.0058376798219,40.2304080729576]]}},{"type":"Feature","id":288408,"properties":{"OBJECTID":288408,"PRIMENAME":"Lake Drive","ELEVTYP_F":0,"ELEVTYP_T":0},"geometry":{"type":"LineString","coordinates":[[-74.0075338439969,40.2372602843795],[-74.0075300105894,40.2372699898737],[-74.0075244137264,40.2372841587778],[-74.0075183804793,40.2373017852888],[-74.0075132321399,40.2373195794864],[-74.0075089465693,40.2373375151571],[-74.007505592132,40.2373555646713],[-74.0075030916637,40.23737367276],[-74.0075008701893,40.237389283584],[-74.0074995389138,40.2374049810575],[-74.0074991043209,40.237420681446],[-74.0074995967573,40.2374364136999],[-74.0075009521817,40.2374520955861],[-74.0075032387692,40.2374677255932],[-74.0075063864,40.2374832493828],[-74.0075111932848,40.2375070708774],[-74.0075168954923,40.2375307592799],[-74.0075235670676,40.2375543140049],[-74.0075311353385,40.2375777086233],[-74.0075396355683,40.2376009423845],[-74.0075490331023,40.2376239322794],[-74.007562971195,40.2376580323124],[-74.0075776992527,40.2376919438623],[-74.0075931786969,40.2377256388442],[-74.0076094518361,40.2377591174377],[-74.007625191772,40.2377967674534],[-74.0076403204103,40.2378346058078],[-74.0076547323664,40.2378725789132],[-74.00765889423,40.2378864876122],[-74.0076621960275,40.2379005295537],[-74.007664564889,40.2379147053285],[-74.0076660378454,40.2379289322329],[-74.007666578667,40.237943182192],[-74.0076662249794,40.237957452664],[-74.0076648530409,40.2379688699932],[-74.0076626567188,40.2379801991527],[-74.0076596385524,40.2379914140339],[-74.0076557975552,40.2380024885133],[-74.0076511693876,40.238013366901],[-74.0076457189821,40.2380240229284],[-74.0076395180328,40.2380344559998],[-74.0076325307014,40.2380445840018],[-74.0076231766486,40.2380551675796],[-74.0076131799796,40.2380653926592],[-74.0076025362024,40.2380752303997],[-74.007591296053,40.2380846530963],[-74.0075794454159,40.2380936624899],[-74.0075670608885,40.2381022300851],[-74.0075541405185,40.2381103009325],[-74.0075407266134,40.2381178752121],[-74.0075156968412,40.2381314129182],[-74.0074900979347,40.2381443438491],[-74.007463966724,40.2381566132204],[-74.0074373746885,40.2381682501573],[-74.0074102854104,40.2381792527033],[-74.0073753426547,40.2381914539283],[-74.0073505808051,40.238197528908],[-74.0073017526797,40.2382079174051],[-74.0072638487134,40.2382184352521],[-74.0072279498125,40.238224075503]]}},{"type":"Feature","id":288840,"properties":{"OBJECTID":288840,"PRIMENAME":"Monmouth Road","ELEVTYP_F":0,"ELEVTYP_T":0},"geometry":{"type":"LineString","coordinates":[[-74.0138145254511,40.2370061346755],[-74.01381410756,40.2372692981204]]}},{"type":"Feature","id":289596,"properties":{"OBJECTID":289596,"PRIMENAME":"Euclid Avenue","ELEVTYP_F":0,"ELEVTYP_T":0},"geometry":{"type":"LineString","coordinates":[[-74.0070950852929,40.2328297695311],[-74.0069478322012,40.23284082039],[-74.0067420056045,40.2328562670952],[-74.0061471604633,40.2329009191734],[-74.0060014014913,40.2329118599171],[-74.0050940842022,40.2329799606584]]}},{"type":"Feature","id":290592,"properties":{"OBJECTID":290592,"PRIMENAME":"Unnamed Segment","ELEVTYP_F":0,"ELEVTYP_T":0},"geometry":{"type":"LineString","coordinates":[[-74.0185942036337,40.2352516858248],[-74.01886042493,40.2353381617753],[-74.0197304245059,40.235625163226],[-74.019950424402,40.2356911618125]]}},{"type":"Feature","id":293143,"properties":{"OBJECTID":293143,"PRIMENAME":"North Wanamassa Drive","ELEVTYP_F":0,"ELEVTYP_T":0},"geometry":{"type":"LineString","coordinates":[[-74.0242137220693,40.2324357038944],[-74.0241445436837,40.2324272666417],[-74.024059856766,40.2324341210756],[-74.0240325472764,40.2324363315964],[-74.0238583018752,40.2324499454418],[-74.0237588033032,40.2324542852995],[-74.0236717976923,40.2324443738686],[-74.0235538373754,40.2324200593527],[-74.0234110160208,40.232386143896],[-74.0233178143626,40.2323761796652],[-74.0232780023921,40.2323785690864]]}},{"type":"Feature","id":293636,"properties":{"OBJECTID":293636,"PRIMENAME":"Corlies Avenue","ELEVTYP_F":0,"ELEVTYP_T":0},"geometry":{"type":"LineString","coordinates":[[-74.0091329952082,40.2376616269368],[-74.0088821728225,40.2376002109362],[-74.0087828529243,40.2375758902256],[-74.0084646240565,40.2374906176407],[-74.0083911792291,40.2374712277562]]}},{"type":"Feature","id":294120,"properties":{"OBJECTID":294120,"PRIMENAME":"8th Avenue","ELEVTYP_F":0,"ELEVTYP_T":0},"geometry":{"type":"LineString","coordinates":[[-74.0057223084999,40.2295905955],[-74.0041067387814,40.2292473373879],[-74.003903294417,40.229203749543]]}},{"type":"Feature","id":294793,"properties":{"OBJECTID":294793,"PRIMENAME":"North Wanamassa Drive","ELEVTYP_F":0,"ELEVTYP_T":0},"geometry":{"type":"LineString","coordinates":[[-74.0251994418769,40.2327088130623],[-74.0250878672463,40.2326932844073],[-74.0248400153234,40.2326173216003],[-74.0242998245395,40.2324517609718],[-74.0242253167284,40.2324371241764],[-74.0242137220693,40.2324357038944]]}},{"type":"Feature","id":295165,"properties":{"OBJECTID":295165,"PRIMENAME":"Elberon Avenue","ELEVTYP_F":0,"ELEVTYP_T":0},"geometry":{"type":"LineString","coordinates":[[-74.0068560087961,40.235074605649],[-74.0066974516604,40.2350524075918],[-74.006132105927,40.2349732912009],[-74.0047653931325,40.2347820136145],[-74.0046422609793,40.2347599913377]]}},{"type":"Feature","id":297199,"properties":{"OBJECTID":297199,"PRIMENAME":"Rona Street","ELEVTYP_F":0,"ELEVTYP_T":0},"geometry":{"type":"LineString","coordinates":[[-74.0201163305504,40.2374481262058],[-74.0197656381121,40.2381530770112],[-74.0197245407737,40.2382357579953]]}},{"type":"Feature","id":297575,"properties":{"OBJECTID":297575,"PRIMENAME":"Laurel Avenue","ELEVTYP_F":0,"ELEVTYP_T":0},"geometry":{"type":"LineString","coordinates":[[-74.011844449323,40.2375829139655],[-74.0109795680472,40.2373754840796],[-74.0093714962523,40.2370112484116],[-74.0092400680082,40.2369814816385]]}},{"type":"Feature","id":298484,"properties":{"OBJECTID":298484,"PRIMENAME":"South Wanamassa Drive","ELEVTYP_F":0,"ELEVTYP_T":0},"geometry":{"type":"LineString","coordinates":[[-74.0201435715662,40.2291839323973],[-74.0201315073715,40.2291983498274],[-74.0200752570686,40.2292362761475],[-74.0199942543405,40.2292645725119],[-74.0198759630406,40.2292831067074],[-74.019508663215,40.2293435431128],[-74.0193643594943,40.2293735802194],[-74.0192718800575,40.2294140459931],[-74.0192217271223,40.229471021152],[-74.0191651066806,40.2295613509161],[-74.0190975255782,40.2296972530941],[-74.0190704932883,40.2297516150347],[-74.0190517920344,40.2297927438324]]}},{"type":"Feature","id":299233,"properties":{"OBJECTID":299233,"PRIMENAME":"Sunset Avenue","ELEVTYP_F":0,"ELEVTYP_T":0},"geometry":{"type":"LineString","coordinates":[[-74.0197072861244,40.2300003157357],[-74.019926355241,40.2300697456903],[-74.0205324873831,40.2302584409003]]}},{"type":"Feature","id":299683,"properties":{"OBJECTID":299683,"PRIMENAME":"Vina Avenue","ELEVTYP_F":0,"ELEVTYP_T":0},"geometry":{"type":"LineString","coordinates":[[-74.0242137220693,40.2324357038944],[-74.024250638908,40.2323657421922],[-74.0246350806994,40.2316381025456],[-74.0246823444738,40.23154819825]]}},{"type":"Feature","id":300983,"properties":{"OBJECTID":300983,"PRIMENAME":"Windermere Avenue","ELEVTYP_F":0,"ELEVTYP_T":0},"geometry":{"type":"LineString","coordinates":[[-74.0174461628322,40.2329489930416],[-74.0185076390431,40.2331435223796],[-74.0193013651296,40.2332886409166]]}},{"type":"Feature","id":301138,"properties":{"OBJECTID":301138,"PRIMENAME":"Edgewood Avenue","ELEVTYP_F":0,"ELEVTYP_T":0},"geometry":{"type":"LineString","coordinates":[[-74.0220509683,40.2292190301707],[-74.0220020107182,40.2293130911235],[-74.0216367340902,40.2300148676385],[-74.0213679959215,40.2305187445954]]}},{"type":"Feature","id":304055,"properties":{"OBJECTID":304055,"PRIMENAME":"Lake Drive","ELEVTYP_F":0,"ELEVTYP_T":0},"geometry":{"type":"LineString","coordinates":[[-74.0082051864953,40.2353203095809],[-74.0082109302659,40.2353850469737],[-74.0080670601187,40.2357064162035]]}},{"type":"Feature","id":306234,"properties":{"OBJECTID":306234,"PRIMENAME":"North Wanamassa Drive","ELEVTYP_F":0,"ELEVTYP_T":0},"geometry":{"type":"LineString","coordinates":[[-74.020499067153,40.2321481559537],[-74.0204034597262,40.2320781957787],[-74.0201872429501,40.2318723668906],[-74.0201131075584,40.2318053497048],[-74.0200202422728,40.2317477541519],[-74.0199210120414,40.2317092109883],[-74.0197853844269,40.2316663439324]]}},{"type":"Feature","id":307129,"properties":{"OBJECTID":307129,"PRIMENAME":"Palmer Avenue","ELEVTYP_F":0,"ELEVTYP_T":0},"geometry":{"type":"LineString","coordinates":[[-74.0138081325999,40.2402731692475],[-74.0131055555121,40.2401011090748],[-74.0118746552293,40.2398065208625]]}},{"type":"Feature","id":308649,"properties":{"OBJECTID":308649,"PRIMENAME":"Wanamassa Point Road","ELEVTYP_F":0,"ELEVTYP_T":0},"geometry":{"type":"LineString","coordinates":[[-74.0186882995304,40.2302003013423],[-74.0185944932071,40.2302357641376],[-74.0184138876873,40.2302731444209],[-74.0182645061788,40.2302915746159],[-74.0181588087303,40.2302863854106],[-74.0180159652823,40.2302667117853],[-74.0177615985194,40.2301846668],[-74.0176435755369,40.2301650682066],[-74.0175564748401,40.2301742315542],[-74.0174690643711,40.2302167750353],[-74.0173751245815,40.2303164746898],[-74.017256221484,40.2304208202771],[-74.0171499509413,40.2305014434861],[-74.0170872912743,40.230548949937]]}},{"type":"Feature","id":309352,"properties":{"OBJECTID":309352,"PRIMENAME":"Lake Drive","ELEVTYP_F":0,"ELEVTYP_T":0},"geometry":{"type":"LineString","coordinates":[[-74.0079022171471,40.2362157536869],[-74.0078761999285,40.2363013497026],[-74.0078063005474,40.2365060120086],[-74.0077618137223,40.236639268436],[-74.0077550294854,40.236715502715],[-74.0077791991206,40.2368156417633],[-74.0078280558722,40.2369397696934],[-74.0078646198429,40.237040044288],[-74.0078516377064,40.2371162522127],[-74.007813971221,40.2371732754222],[-74.0077388031674,40.2372396925011],[-74.00768057999,40.2372911098403]]}},{"type":"Feature","id":310154,"properties":{"OBJECTID":310154,"PRIMENAME":"Main Street","ELEVTYP_F":0,"ELEVTYP_T":0},"geometry":{"type":"LineString","coordinates":[[-74.0072836245295,40.233878925735],[-74.0068560087961,40.235074605649]]}},{"type":"Feature","id":311822,"properties":{"OBJECTID":311822,"PRIMENAME":"Edgemont Drive","ELEVTYP_F":0,"ELEVTYP_T":0},"geometry":{"type":"LineString","coordinates":[[-74.0036601260381,40.2318494511401],[-74.0039013356399,40.2318432376116],[-74.0042184250648,40.2318445963194],[-74.0044484450486,40.2318551347855],[-74.0047653268528,40.2318898464571],[-74.0052125912238,40.2319537190429],[-74.0055417642273,40.2320075599905],[-74.0056968307796,40.2320606286393],[-74.0058330283239,40.2321469997893],[-74.0059256396344,40.2322379600679],[-74.0060181809991,40.2323384193214],[-74.0061169880015,40.2324294067887],[-74.0061504241883,40.2324516140334],[-74.0062469916261,40.2325157501169],[-74.0062990917747,40.2325397184861],[-74.0064143147095,40.2325927269899],[-74.0066532873063,40.2326878314755],[-74.0066685378724,40.2326939021366],[-74.0069505026259,40.2327837167905],[-74.0070950852929,40.2328297695311]]}},{"type":"Feature","id":311850,"properties":{"OBJECTID":311850,"PRIMENAME":"Wildwood Road","ELEVTYP_F":0,"ELEVTYP_T":0},"geometry":{"type":"LineString","coordinates":[[-74.0115517222347,40.2405982309986],[-74.0093822881271,40.240081844062],[-74.0092638835618,40.240053642949]]}},{"type":"Feature","id":313622,"properties":{"OBJECTID":313622,"PRIMENAME":"Camp Avenue","ELEVTYP_F":0,"ELEVTYP_T":0},"geometry":{"type":"LineString","coordinates":[[-74.0192553484675,40.2315080153527],[-74.0191515573377,40.2314772559784],[-74.0190647586627,40.2314435129531],[-74.0190251045669,40.2313973960543]]}},{"type":"Feature","id":315812,"properties":{"OBJECTID":315812,"PRIMENAME":"Wickapecko Drive","ELEVTYP_F":0,"ELEVTYP_T":0},"geometry":{"type":"LineString","coordinates":[[-74.0224992524734,40.2414430009665],[-74.0227458561035,40.2409181122146],[-74.0227637417035,40.2408809604863]]}},{"type":"Feature","id":315970,"properties":{"OBJECTID":315970,"PRIMENAME":"Sunset Avenue","ELEVTYP_F":0,"ELEVTYP_T":0},"geometry":{"type":"LineString","coordinates":[[-74.0221960007616,40.2307773630573],[-74.0230206998184,40.2310332176328]]}},{"type":"Feature","id":318190,"properties":{"OBJECTID":318190,"PRIMENAME":"Main Street","ELEVTYP_F":0,"ELEVTYP_T":0},"geometry":{"type":"LineString","coordinates":[[-74.0084001491352,40.2299789886925],[-74.0082360731921,40.2307025607723],[-74.0081757344595,40.2309686446933],[-74.0081116514623,40.2312504599453],[-74.008082580982,40.2313783060762]]}},{"type":"Feature","id":323260,"properties":{"OBJECTID":323260,"PRIMENAME":"Interlaken Drive","ELEVTYP_F":0,"ELEVTYP_T":0},"geometry":{"type":"LineString","coordinates":[[-74.0098920348947,40.232392141648],[-74.0099324271665,40.2322496423097],[-74.0099828313419,40.2321640661547],[-74.0100330618058,40.2320927927561],[-74.0101143131565,40.2320359262331],[-74.0102079246365,40.231988665349],[-74.0102765067242,40.2319603224051],[-74.0103885724534,40.2319417717064],[-74.0105004658998,40.2319422449902],[-74.0106309188086,40.2319666526449],[-74.0110655559827,40.2320590283405],[-74.0112890027612,40.2321171554949],[-74.0115436423352,40.2321611382697],[-74.0116555438675,40.2321804974886]]}},{"type":"Feature","id":324013,"properties":{"OBJECTID":324013,"PRIMENAME":"Westra Street","ELEVTYP_F":0,"ELEVTYP_T":0},"geometry":{"type":"LineString","coordinates":[[-74.0155396775866,40.2326006462171],[-74.0155135522931,40.2326830038649],[-74.0153990756506,40.233044759037],[-74.0152116688501,40.2335323256]]}},{"type":"Feature","id":327790,"properties":{"OBJECTID":327790,"PRIMENAME":"Camp Avenue","ELEVTYP_F":0,"ELEVTYP_T":0},"geometry":{"type":"LineString","coordinates":[[-74.0197072861244,40.2300003157357],[-74.0200620867471,40.2293363128904],[-74.0201435715662,40.2291839323973]]}},{"type":"Feature","id":329707,"properties":{"OBJECTID":329707,"PRIMENAME":"Bendermere Avenue","ELEVTYP_F":0,"ELEVTYP_T":0},"geometry":{"type":"LineString","coordinates":[[-74.0096908306065,40.2330245619629],[-74.0098022271314,40.2330593213596],[-74.0111442903724,40.2334779648888]]}},{"type":"Feature","id":332545,"properties":{"OBJECTID":332545,"PRIMENAME":"Laurel Avenue","ELEVTYP_F":0,"ELEVTYP_T":0},"geometry":{"type":"LineString","coordinates":[[-74.0150942636004,40.2383617295126],[-74.0138105349405,40.2380542023501]]}},{"type":"Feature","id":333151,"properties":{"OBJECTID":333151,"PRIMENAME":"Wickapecko Drive","ELEVTYP_F":0,"ELEVTYP_T":0},"geometry":{"type":"LineString","coordinates":[[-74.0239457978371,40.2364512768654],[-74.024035120957,40.2359671172283],[-74.0240679982019,40.2357889129318],[-74.0241292279657,40.2354596543462]]}},{"type":"Feature","id":333693,"properties":{"OBJECTID":333693,"PRIMENAME":"Corlies Avenue","ELEVTYP_F":0,"ELEVTYP_T":0},"geometry":{"type":"LineString","coordinates":[[-74.00768057999,40.2372911098403],[-74.007663844841,40.2372870306808],[-74.0075338439969,40.2372602843795]]}},{"type":"Feature","id":334595,"properties":{"OBJECTID":334595,"PRIMENAME":"Bridlemere Avenue","ELEVTYP_F":0,"ELEVTYP_T":0},"geometry":{"type":"LineString","coordinates":[[-74.0138183029568,40.236261894517],[-74.0136419676658,40.2361305081706],[-74.0132644133361,40.2358811355355],[-74.013084950637,40.2357564604703],[-74.0129548648801,40.2356844271072],[-74.0128245779778,40.2356457471862],[-74.0126754553764,40.2356260396395],[-74.0125262997832,40.2356111089045],[-74.0123770404917,40.2356104801471],[-74.0122091559647,40.2356097727005],[-74.012041065149,40.2356328931117],[-74.0119414583876,40.2356515519685],[-74.0118748405207,40.235638490549],[-74.0118669131862,40.2356369349864],[-74.0117022478515,40.2355820219747]]}},{"type":"Feature","id":334845,"properties":{"OBJECTID":334845,"PRIMENAME":"Bridlemere Avenue","ELEVTYP_F":0,"ELEVTYP_T":0},"geometry":{"type":"LineString","coordinates":[[-74.0183133948105,40.2378344967914],[-74.0183002631381,40.237832438152],[-74.0182256492051,40.2378321275821],[-74.018094879452,40.2378554121211],[-74.0176149491918,40.2380059381574],[-74.0172221631068,40.2381424952154],[-74.0170165762037,40.2381988487648],[-74.016848446786,40.2382267251994],[-74.0167178789975,40.2382214308385],[-74.0165749164474,40.238216056638],[-74.0164755066431,40.2381965895432],[-74.0163826369728,40.2381389902063],[-74.016327121864,40.2380673001481],[-74.0162966763827,40.2379813563964],[-74.016279031445,40.2378383106671],[-74.0162737841935,40.2377048422105],[-74.0162559712554,40.2375903739552],[-74.0162068597833,40.2374948537121],[-74.0161267254412,40.2373944275094],[-74.0160807702932,40.2373409329535],[-74.0160527591928,40.2373083296453],[-74.0159658619179,40.2372484933641],[-74.0159413281928,40.2372316005086],[-74.015805138782,40.2371357437833],[-74.0156474625115,40.2370592604082]]}},{"type":"Feature","id":335797,"properties":{"OBJECTID":335797,"PRIMENAME":"Grassmere Avenue","ELEVTYP_F":0,"ELEVTYP_T":0},"geometry":{"type":"LineString","coordinates":[[-74.0189610622243,40.2343394778772],[-74.0180403549751,40.2341424379783],[-74.0170956918606,40.2339400191957]]}},{"type":"Feature","id":339039,"properties":{"OBJECTID":339039,"PRIMENAME":"Corlies Avenue","ELEVTYP_F":0,"ELEVTYP_T":0},"geometry":{"type":"LineString","coordinates":[[-74.0115719368661,40.2382437792051],[-74.0111482070639,40.238143546354],[-74.0091987909319,40.2376777460137],[-74.0091329952082,40.2376616269368]]}},{"type":"Feature","id":339176,"properties":{"OBJECTID":339176,"PRIMENAME":"South Edgemere Drive","ELEVTYP_F":0,"ELEVTYP_T":0},"geometry":{"type":"LineString","coordinates":[[-74.0092400680082,40.2369814816385],[-74.0092600743136,40.2369392621103],[-74.0093355148097,40.2368299644043],[-74.0094296150666,40.2367159694998],[-74.0095089862863,40.2366327131299]]}},{"type":"Feature","id":340862,"properties":{"OBJECTID":340862,"PRIMENAME":"Sunset Avenue","ELEVTYP_F":0,"ELEVTYP_T":0},"geometry":{"type":"LineString","coordinates":[[-74.0230206998184,40.2310332176328],[-74.0237919390912,40.2312724569155],[-74.0238532689848,40.23129143144]]}},{"type":"Feature","id":343322,"properties":{"OBJECTID":343322,"PRIMENAME":"Sunset Avenue","ELEVTYP_F":0,"ELEVTYP_T":0},"geometry":{"type":"LineString","coordinates":[[-74.0190517920344,40.2297927438324],[-74.0197072861244,40.2300003157357]]}},{"type":"Feature","id":344120,"properties":{"OBJECTID":344120,"PRIMENAME":"Windermere Avenue","ELEVTYP_F":0,"ELEVTYP_T":0},"geometry":{"type":"LineString","coordinates":[[-74.0216472033425,40.2342986351894],[-74.02162675779,40.2343956310223],[-74.0215635009368,40.2345431187827],[-74.0214629255539,40.2346999776795],[-74.0213600666373,40.2348554544218]]}},{"type":"Feature","id":344239,"properties":{"OBJECTID":344239,"PRIMENAME":"Wickapecko Drive","ELEVTYP_F":0,"ELEVTYP_T":0},"geometry":{"type":"LineString","coordinates":[[-74.0241292279657,40.2354596543462],[-74.0241460153958,40.235369376439]]}},{"type":"Feature","id":345350,"properties":{"OBJECTID":345350,"PRIMENAME":"Wickapecko Drive","ELEVTYP_F":0,"ELEVTYP_T":0},"geometry":{"type":"LineString","coordinates":[[-74.0235117056961,40.2384364143313],[-74.0236560239049,40.2379363857293],[-74.0237091065353,40.2377481439524],[-74.0237538912878,40.2375168494001],[-74.0237661599286,40.2374478564849]]}},{"type":"Feature","id":351047,"properties":{"OBJECTID":351047,"PRIMENAME":"Main Street","ELEVTYP_F":0,"ELEVTYP_T":0},"geometry":{"type":"LineString","coordinates":[[-74.0081720102894,40.2318299768661],[-74.0081400136009,40.231796843106],[-74.008113020939,40.2317849512524],[-74.0080870665631,40.2317781696946],[-74.0080489856603,40.2317740268849],[-74.0080023325,40.2317764918543],[-74.0079484159898,40.2317927340737],[-74.007881091769,40.231810511642]]}},{"type":"Feature","id":351383,"properties":{"OBJECTID":351383,"PRIMENAME":"Main Street","ELEVTYP_F":0,"ELEVTYP_T":0},"geometry":{"type":"LineString","coordinates":[[-74.0078609261123,40.2319639673429],[-74.0078677236378,40.2319947423631]]}},{"type":"Feature","id":351491,"properties":{"OBJECTID":351491,"PRIMENAME":"Buttermere Avenue","ELEVTYP_F":0,"ELEVTYP_T":0},"geometry":{"type":"LineString","coordinates":[[-74.0158044071238,40.2363583977401],[-74.0141800910033,40.2356704968334],[-74.0140922414903,40.2356329304577]]}},{"type":"Feature","id":352596,"properties":{"OBJECTID":352596,"PRIMENAME":"Woodmere Avenue","ELEVTYP_F":0,"ELEVTYP_T":0},"geometry":{"type":"LineString","coordinates":[[-74.0179808872399,40.2371591004293],[-74.0179070285252,40.2371587928005],[-74.017782694948,40.2371534985912],[-74.0176708576692,40.2371339528213],[-74.0175405638872,40.2370953061021],[-74.0174900684938,40.2370733534759]]}},{"type":"Feature","id":352840,"properties":{"OBJECTID":352840,"PRIMENAME":"Buttermere Avenue","ELEVTYP_F":0,"ELEVTYP_T":0},"geometry":{"type":"LineString","coordinates":[[-74.0106950057276,40.2341844103314],[-74.0097224226954,40.2337721630397],[-74.0096463031811,40.2337377998155]]}},{"type":"Feature","id":353055,"properties":{"OBJECTID":353055,"PRIMENAME":"Grassmere Avenue","ELEVTYP_F":0,"ELEVTYP_T":0},"geometry":{"type":"LineString","coordinates":[[-74.0081017506866,40.232085205112],[-74.0081916693753,40.2320882505095],[-74.0082786071359,40.2320922153645],[-74.0084620614666,40.2321032073017],[-74.0086663349003,40.232117910719]]}},{"type":"Feature","id":353698,"properties":{"OBJECTID":353698,"PRIMENAME":"Woodmere Avenue","ELEVTYP_F":0,"ELEVTYP_T":0},"geometry":{"type":"LineString","coordinates":[[-74.01627212688,40.2370599679922],[-74.0174900684938,40.2370733534759]]}},{"type":"Feature","id":354859,"properties":{"OBJECTID":354859,"PRIMENAME":"Wanamassa Point Road","ELEVTYP_F":0,"ELEVTYP_T":0},"geometry":{"type":"LineString","coordinates":[[-74.0170872912743,40.230548949937],[-74.0173421472937,40.2306277028933],[-74.0176097039102,40.2307136739438],[-74.0177158848996,40.2307467026368],[-74.0178136561959,40.2307634166088],[-74.0179456271463,40.2307607275288],[-74.0182267354519,40.2307390570229],[-74.0182991085805,40.2307360915278],[-74.0183629101817,40.2307396237702],[-74.0184001956307,40.2307397789211]]}},{"type":"Feature","id":356036,"properties":{"OBJECTID":356036,"PRIMENAME":"Woodmere Avenue","ELEVTYP_F":0,"ELEVTYP_T":0},"geometry":{"type":"LineString","coordinates":[[-74.0205215974547,40.2366224181239],[-74.0203921552008,40.2366305570302],[-74.0190420038477,40.2367154920608],[-74.0189050733634,40.2367340017997],[-74.0187929003291,40.2367669178211],[-74.0186804912147,40.2368331601651],[-74.0185553818275,40.2369374802432],[-74.0185124105774,40.2369760094854]]}},{"type":"Feature","id":356874,"properties":{"OBJECTID":356874,"PRIMENAME":"Main Street","ELEVTYP_F":0,"ELEVTYP_T":0},"geometry":{"type":"LineString","coordinates":[[-74.0078677236378,40.2319947423631],[-74.0078770379132,40.2320192423193],[-74.0078914932769,40.2320362966923],[-74.007918741612,40.2320573593889],[-74.0079492461819,40.2320690185339],[-74.0079906480321,40.2320795170999],[-74.0080353959489,40.2320829740378],[-74.0081017506866,40.232085205112]]}},{"type":"Feature","id":357191,"properties":{"OBJECTID":357191,"PRIMENAME":"Wanamassa Point Road","ELEVTYP_F":0,"ELEVTYP_T":0},"geometry":{"type":"LineString","coordinates":[[-74.0184001956307,40.2307397789211],[-74.0184395222027,40.2307399425523],[-74.0185161002706,40.2307500342998],[-74.0186095172203,40.2307797972894],[-74.0191106903827,40.2309352024332],[-74.0191934632538,40.2309608569086]]}},{"type":"Feature","id":358920,"properties":{"OBJECTID":358920,"PRIMENAME":"Woodmere Avenue","ELEVTYP_F":0,"ELEVTYP_T":0},"geometry":{"type":"LineString","coordinates":[[-74.0182371973945,40.2371377941313],[-74.0181309708783,40.2371501999343],[-74.0180065370668,40.2371592072523],[-74.0179808872399,40.2371591004293]]}},{"type":"Feature","id":363483,"properties":{"OBJECTID":363483,"PRIMENAME":"Woodmere Avenue","ELEVTYP_F":0,"ELEVTYP_T":0},"geometry":{"type":"LineString","coordinates":[[-74.0185124105774,40.2369760094854],[-74.0184176716055,40.2370608274997],[-74.0183551508782,40.2371082252714],[-74.0183154356131,40.2371187761336],[-74.0182492430792,40.2371363617724],[-74.0182371973945,40.2371377941313]]}},{"type":"Feature","id":371591,"properties":{"OBJECTID":371591,"PRIMENAME":"Main Street","ELEVTYP_F":0,"ELEVTYP_T":0},"geometry":{"type":"LineString","coordinates":[[-74.0079191224544,40.2322174358954],[-74.0079758755274,40.2322002996776],[-74.0080196171785,40.2321697115834],[-74.0080785888401,40.2321132732734],[-74.0081017506866,40.232085205112]]}},{"type":"Feature","id":373355,"properties":{"OBJECTID":373355,"PRIMENAME":"Main Street","ELEVTYP_F":0,"ELEVTYP_T":0},"geometry":{"type":"LineString","coordinates":[[-74.0081017506866,40.232085205112],[-74.0081252033926,40.2320567265764],[-74.0081596340121,40.2319860461346],[-74.0081785263324,40.231929409526],[-74.0081850974653,40.2318727484788],[-74.0081720102894,40.2318299768661]]}},{"type":"Feature","id":376694,"properties":{"OBJECTID":376694,"PRIMENAME":"Main Street","ELEVTYP_F":0,"ELEVTYP_T":0},"geometry":{"type":"LineString","coordinates":[[-74.008082580982,40.2313783060762],[-74.0080033972984,40.2315254161392],[-74.0079452456638,40.231656638603],[-74.007881091769,40.231810511642]]}},{"type":"Feature","id":377353,"properties":{"OBJECTID":377353,"PRIMENAME":"Grassmere Avenue","ELEVTYP_F":0,"ELEVTYP_T":0},"geometry":{"type":"LineString","coordinates":[[-74.0083060007701,40.2319268159127],[-74.0082854914267,40.2319129530589],[-74.0082147998034,40.2318664781419],[-74.0081720102894,40.2318299768661]]}},{"type":"Feature","id":378810,"properties":{"OBJECTID":378810,"PRIMENAME":"Main Street","ELEVTYP_F":0,"ELEVTYP_T":0},"geometry":{"type":"LineString","coordinates":[[-74.0078609261123,40.2319639673429],[-74.0078835482228,40.2321095061636],[-74.0078870216887,40.2321788660914],[-74.0079191224544,40.2322174358954]]}},{"type":"Feature","id":381657,"properties":{"OBJECTID":381657,"PRIMENAME":"Grassmere Avenue","ELEVTYP_F":0,"ELEVTYP_T":0},"geometry":{"type":"LineString","coordinates":[[-74.0086663349003,40.232117910719],[-74.0084806110732,40.2320295762786],[-74.0083861857965,40.2319810237066],[-74.0083060007701,40.2319268159127]]}},{"type":"Feature","id":382242,"properties":{"OBJECTID":382242,"PRIMENAME":"Buttermere Avenue","ELEVTYP_F":0,"ELEVTYP_T":0},"geometry":{"type":"LineString","coordinates":[[-74.0174900684938,40.2370733534759],[-74.0174623926293,40.237061323157],[-74.0173855782253,40.237027923145],[-74.0167035216214,40.2367391329934],[-74.0158044071238,40.2363583977401]]}},{"type":"Feature","id":382404,"properties":{"OBJECTID":382404,"PRIMENAME":"Buttermere Avenue","ELEVTYP_F":0,"ELEVTYP_T":0},"geometry":{"type":"LineString","coordinates":[[-74.0140922414903,40.2356329304577],[-74.0124813313797,40.234943716365],[-74.0123916983326,40.2349053720137]]}},{"type":"Feature","id":387409,"properties":{"OBJECTID":387409,"PRIMENAME":"Hetrick Point Road","ELEVTYP_F":0,"ELEVTYP_T":0},"geometry":{"type":"LineString","coordinates":[[-74.0156187020719,40.230568316501],[-74.0158355309659,40.2306051315965],[-74.0160523473195,40.2306386236664],[-74.0161714060953,40.2306586956585],[-74.0162565420546,40.2306590515174],[-74.0164012748974,40.2306498831841],[-74.0164907557629,40.2306437235735],[-74.0165152409756,40.230639363044],[-74.016580233249,40.2306277898218],[-74.0166826370681,40.2305923375462],[-74.0167808616259,40.2305503333792],[-74.0168491237109,40.2305310450179],[-74.0169257454703,40.2305248313908],[-74.0169853676149,40.2305218134968],[-74.0170746032112,40.2305450259228],[-74.0170872912743,40.230548949937]]}},{"type":"Feature","id":396660,"properties":{"OBJECTID":396660,"PRIMENAME":"Wanamassa Point Road","ELEVTYP_F":0,"ELEVTYP_T":0},"geometry":{"type":"LineString","coordinates":[[-74.0190517920344,40.2297927438324],[-74.0189883756743,40.2299323776052],[-74.0189193259736,40.2300226294658],[-74.0188317183835,40.2301033047799],[-74.0187191851533,40.2301886526295],[-74.0186882995304,40.2302003013423]]}},{"type":"Feature","id":396900,"properties":{"OBJECTID":396900,"PRIMENAME":"Main Street","ELEVTYP_F":0,"ELEVTYP_T":0},"geometry":{"type":"LineString","coordinates":[[-74.0081720102894,40.2318299768661],[-74.0081529194245,40.2317902816407],[-74.0081405701668,40.2317413516869],[-74.0081404193343,40.2317407593068],[-74.0081167485089,40.231641033974],[-74.0081055493781,40.2315304347301],[-74.008082580982,40.2313783060762]]}},{"type":"Feature","id":398391,"properties":{"OBJECTID":398391,"PRIMENAME":"Buttermere Avenue","ELEVTYP_F":0,"ELEVTYP_T":0},"geometry":{"type":"LineString","coordinates":[[-74.0123916983326,40.2349053720137],[-74.0106950057276,40.2341844103314]]}},{"type":"Feature","id":401093,"properties":{"OBJECTID":401093,"PRIMENAME":"Main Street","ELEVTYP_F":0,"ELEVTYP_T":0},"geometry":{"type":"LineString","coordinates":[[-74.007881091769,40.231810511642],[-74.0078622762808,40.2319209553603],[-74.0078595467724,40.2319467208835],[-74.0078609261123,40.2319639673429]]}}]}
